{
"type": "FeatureCollection",
"name": "calzadas_romanas",
"crs": { "type": "name", "properties": { "name": "urn:ogc:def:crs:OGC:1.3:CRS84" } },
"features": [
{ "type": "Feature", "properties": { "clase": "Via principal", "certeza": "Confirmada", "longitud_km": 304.22770439052414 }, "geometry": { "type": "LineString", "coordinates": [ [ -3.63876926954536, 40.218849582340503 ], [ -3.464664322946271, 40.338627975462508 ], [ -3.42767537814731, 40.387032797103799 ], [ -3.375533568490821, 40.4813353985638 ], [ -3.26893213494638, 40.548290888213806 ], [ -3.22488523026637, 40.589979612390998 ], [ -3.197028423898479, 40.650885248061499 ], [ -3.155294601125, 40.806157107372009 ], [ -3.09565105126068, 40.886942391351504 ], [ -2.84050831122833, 40.915129770698798 ], [ -2.7051950736932, 41.00373079002761 ], [ -2.64035391740904, 41.064008868697201 ], [ -2.4651942372753, 41.128573553881409 ], [ -2.41203875517748, 41.177964197862401 ], [ -2.38106857578275, 41.191530269374404 ], [ -2.20412495378415, 41.230196382892302 ], [ -2.06947547063269, 41.281059872733103 ], [ -1.92337119469592, 41.2742230618055 ], [ -1.85283067888829, 41.3105338711093 ], [ -1.72896880976056, 41.327344100478101 ], [ -1.62783725930366, 41.369457974744698 ], [ -1.58175872567537, 41.375619265769309 ], [ -1.45447086081878, 41.470818576258409 ], [ -1.3302171384793, 41.532289074961696 ], [ -1.26030901776705, 41.605762573289503 ], [ -1.21547974605157, 41.630697317313903 ], [ -0.993475752645831, 41.625843020676307 ], [ -0.882665969811799, 41.639606671827998 ] ] } },
{ "type": "Feature", "properties": { "clase": "Via principal", "certeza": "Confirmada", "longitud_km": 154.79310967643892 }, "geometry": { "type": "MultiLineString", "coordinates": [ [ [ -0.882665969811799, 41.639606671827998 ], [ -1.01377452677695, 41.7869384850624 ], [ -1.0704899011917, 41.861957322062693 ], [ -1.1299475536911, 41.957995085251 ], [ -1.14448716206039, 41.994918730442102 ], [ -1.148030910617806, 42.035754816067346 ] ], [ [ -1.169753974970559, 42.177680999009418 ], [ -1.20646476410325, 42.243905434308203 ], [ -1.25540801618941, 42.279886852273009 ], [ -1.46302467285309, 42.332672023938798 ], [ -1.56018571826323, 42.372277169214001 ], [ -1.59217824333336, 42.448206088653301 ], [ -1.65009821362837, 42.725200110130103 ], [ -1.65496874884315, 42.795985243096702 ] ] ] } },
{ "type": "Feature", "properties": { "clase": "Via principal", "certeza": "Confirmada", "longitud_km": 55.635564658320249 }, "geometry": { "type": "LineString", "coordinates": [ [ -1.65496874884315, 42.795985243096702 ], [ -1.38298317485029, 42.959846075214905 ], [ -1.34996329330209, 43.0252239128166 ], [ -1.279088909411161, 43.100045801528204 ] ] } },
{ "type": "Feature", "properties": { "clase": "Via principal", "certeza": "Confirmada", "longitud_km": 131.95838150711648 }, "geometry": { "type": "LineString", "coordinates": [ [ -2.289829795155709, 42.428502402025998 ], [ -2.0912102592376, 42.359374266019302 ], [ -1.96527581864596, 42.290389562488308 ], [ -1.92131166497326, 42.23184478995411 ], [ -1.84968305938784, 42.184367402783998 ], [ -1.73899237788911, 42.1482753526249 ], [ -1.70923295591913, 42.033167294229109 ], [ -1.6838386473407, 42.002015553026702 ], [ -1.52334737781828, 41.966918594343106 ], [ -1.36662131506258, 41.855233856563402 ], [ -1.09347353129787, 41.735717498760799 ] ] } },
{ "type": "Feature", "properties": { "clase": "Via principal", "certeza": "Hipotética", "longitud_km": 32.631124000894424 }, "geometry": { "type": "LineString", "coordinates": [ [ -0.882665969811799, 41.639606671827998 ], [ -0.838225745869471, 41.671739518669703 ], [ -0.759523285612345, 41.843379678037202 ], [ -0.746544606050433, 41.908117523734397 ] ] } },
{ "type": "Feature", "properties": { "clase": "Via principal", "certeza": "Hipotética", "longitud_km": 153.406041737766 }, "geometry": { "type": "LineString", "coordinates": [ [ -0.746544606050433, 41.908117523734397 ], [ -0.727512084567426, 42.085925477764903 ], [ -0.692655468961761, 42.266244547674702 ], [ -0.709375609224138, 42.400909007349199 ], [ -0.787531615310778, 42.507252372880899 ], [ -0.790582821326724, 42.556915627841001 ], [ -0.748491048658614, 42.793740161961203 ], [ -0.717161196400521, 42.867093308114598 ], [ -0.672063392914436, 42.91597070325777 ] ] } },
{ "type": "Feature", "properties": { "clase": "Via principal", "certeza": "Confirmada", "longitud_km": 11.930975482171508 }, "geometry": { "type": "LineString", "coordinates": [ [ -3.31793108437681, 42.542834522245109 ], [ -3.27613416393777, 42.588690259074298 ], [ -3.22165319158711, 42.621601056055503 ] ] } },
{ "type": "Feature", "properties": { "clase": "Via principal", "certeza": "Confirmada", "longitud_km": 81.187029954321019 }, "geometry": { "type": "LineString", "coordinates": [ [ -3.22165319158711, 42.621601056055503 ], [ -3.13253962639461, 42.604990686981807 ], [ -3.01253237694709, 42.559261753628199 ], [ -2.94694641757939, 42.549371460885709 ], [ -2.79072242143936, 42.479167530701297 ], [ -2.64716849403525, 42.446425451585696 ], [ -2.54651370195749, 42.434781592925603 ], [ -2.44953321522448, 42.445697143618702 ], [ -2.289829795155709, 42.428502402025998 ] ] } },
{ "type": "Feature", "properties": { "clase": "Via principal", "certeza": "Confirmada", "longitud_km": 142.78112669949823 }, "geometry": { "type": "LineString", "coordinates": [ [ -3.22165319158711, 42.621601056055503 ], [ -3.164849706816021, 42.647803311154 ], [ -3.055712514277451, 42.666752087957811 ], [ -2.97695885274409, 42.698526973203094 ], [ -2.91225863763644, 42.707896825088802 ], [ -2.79438824039963, 42.821416311490097 ], [ -2.7279590585259, 42.8462078427848 ], [ -2.67610699417608, 42.85489520367981 ], [ -2.4644460089156, 42.845958138508301 ], [ -2.29119357430093, 42.85603997303761 ], [ -2.03526669665371, 42.895857095991893 ], [ -1.94440682631184, 42.918501414651509 ], [ -1.87430351695972, 42.896161188829801 ], [ -1.82276939064351, 42.847197317184396 ], [ -1.7979423933198, 42.833394391698199 ], [ -1.65496874884315, 42.795985243096702 ] ] } },
{ "type": "Feature", "properties": { "clase": "Via principal", "certeza": "Confirmada", "longitud_km": 20.668377357834483 }, "geometry": { "type": "LineString", "coordinates": [ [ -1.09347353129787, 41.735717498760799 ], [ -1.03303550959964, 41.713296263293998 ], [ -0.922940291658309, 41.651902390421299 ], [ -0.882665969811799, 41.639606671827998 ] ] } },
{ "type": "Feature", "properties": { "clase": "Via principal", "certeza": "Confirmada", "longitud_km": 115.554478629729 }, "geometry": { "type": "LineString", "coordinates": [ [ 0.620066039721517, 41.609121579347097 ], [ 0.803802159553245, 41.607147958667397 ], [ 1.0283194190367, 41.56958734241789 ], [ 1.28776825584135, 41.5546054834183 ], [ 1.4507095347741, 41.553209166369797 ], [ 1.6005971463783, 41.571929290925603 ], [ 1.6971575440535, 41.593853416616597 ], [ 1.74937967657113, 41.595358646114001 ], [ 1.78708346653722, 41.589191456963498 ], [ 1.83142483357747, 41.568775034610297 ], [ 1.9327658199547, 41.480865647992403 ] ] } },
{ "type": "Feature", "properties": { "clase": "Via principal", "certeza": "Confirmada", "longitud_km": 8.5062847749546453 }, "geometry": { "type": "LineString", "coordinates": [ [ 1.9327658199547, 41.480865647992403 ], [ 1.98881388086064, 41.492661079128503 ], [ 2.02606548945541, 41.50991302819741 ] ] } },
{ "type": "Feature", "properties": { "clase": "Via principal", "certeza": "Confirmada", "longitud_km": 13.05446254245256 }, "geometry": { "type": "LineString", "coordinates": [ [ 2.02606548945541, 41.50991302819741 ], [ 2.10545231324542, 41.550491914618 ], [ 2.16386957111878, 41.562038325752802 ] ] } },
{ "type": "Feature", "properties": { "clase": "Via principal", "certeza": "Confirmada", "longitud_km": 12.943794198631741 }, "geometry": { "type": "LineString", "coordinates": [ [ 2.16386957111878, 41.562038325752802 ], [ 2.27517027517076, 41.566414045195799 ], [ 2.31593440522258, 41.578786504090999 ] ] } },
{ "type": "Feature", "properties": { "clase": "Via principal", "certeza": "Confirmada", "longitud_km": 42.047746588770913 }, "geometry": { "type": "LineString", "coordinates": [ [ 2.31593440522258, 41.578786504090999 ], [ 2.53072460799491, 41.718223591371903 ], [ 2.568980600450979, 41.733646021133097 ], [ 2.63387558827854, 41.738331044457901 ], [ 2.72147689628406, 41.790762703548097 ] ] } },
{ "type": "Feature", "properties": { "clase": "Via principal", "certeza": "Confirmada", "longitud_km": 23.050910159009643 }, "geometry": { "type": "LineString", "coordinates": [ [ 1.9327658199547, 41.480865647992403 ], [ 1.978477053124539, 41.457829200552801 ], [ 2.061749249520191, 41.372895794955198 ], [ 2.10686227477939, 41.351664351432198 ], [ 2.133253689966999, 41.352241473591597 ] ] } },
{ "type": "Feature", "properties": { "clase": "Via principal", "certeza": "Confirmada", "longitud_km": 31.51244801719524 }, "geometry": { "type": "LineString", "coordinates": [ [ 2.133253689966999, 41.352241473591597 ], [ 2.26009208995773, 41.469053178765201 ], [ 2.41439116263222, 41.5315377803473 ] ] } },
{ "type": "Feature", "properties": { "clase": "Via principal", "certeza": "Confirmada", "longitud_km": 185.70165014463942 }, "geometry": { "type": "MultiLineString", "coordinates": [ [ [ -0.129635489680778, 40.017483554115898 ], [ -0.092113218690881, 40.071212473298701 ], [ 0.018984005271134, 40.151173444816294 ], [ 0.086810860886986, 40.24758707343792 ] ], [ [ 0.088326047271341, 40.251112258716617 ], [ 0.100493844521568, 40.286970445645203 ], [ 0.155439642031197, 40.343435084085201 ], [ 0.179599389626453, 40.394898396116801 ], [ 0.188444444459023, 40.433727888208907 ], [ 0.186490883600542, 40.513572033828197 ], [ 0.207455975907084, 40.574857385510199 ], [ 0.25292486337623, 40.632644748584497 ], [ 0.309006932702183, 40.678999208249401 ], [ 0.352810895200169, 40.729303707116102 ], [ 0.417570699153854, 40.763568815538903 ], [ 0.518181597750209, 40.802361546719801 ], [ 0.56953029741879, 40.760785256624303 ], [ 0.597651686383916, 40.756141920502102 ], [ 0.644473030632438, 40.766055999161097 ], [ 0.672339928674218, 40.782940955878608 ], [ 0.898899294157093, 40.996493058924997 ], [ 0.966616746386552, 41.046967964632003 ], [ 1.02246988814719, 41.070042958639696 ], [ 1.15206149782129, 41.087508900224499 ], [ 1.22331096494945, 41.1149209926296 ] ] ] } },
{ "type": "Feature", "properties": { "clase": "Via principal", "certeza": "Confirmada", "longitud_km": 83.465451896636424 }, "geometry": { "type": "LineString", "coordinates": [ [ 1.22331096494945, 41.1149209926296 ], [ 1.20123709466411, 41.1735775528185 ], [ 1.16277347279982, 41.359862351552003 ], [ 1.142085563759, 41.396083236971897 ], [ 0.97942679240667, 41.424385173020603 ], [ 0.899168386297062, 41.500755339683302 ], [ 0.864537764359023, 41.5226876088796 ], [ 0.715148802179137, 41.587446632224101 ], [ 0.620066039721517, 41.609121579347097 ] ] } },
{ "type": "Feature", "properties": { "clase": "Via principal", "certeza": "Confirmada", "longitud_km": 74.103631619447881 }, "geometry": { "type": "LineString", "coordinates": [ [ 1.22331096494945, 41.1149209926296 ], [ 1.28340262771517, 41.134996826622398 ], [ 1.37804154786225, 41.145280402133402 ], [ 1.48194768610969, 41.177491214518902 ], [ 1.54350911305445, 41.240044293832106 ], [ 1.61708091832988, 41.2943633184288 ], [ 1.66522099480534, 41.316750717821897 ], [ 1.77961572127466, 41.405868654399697 ], [ 1.9327658199547, 41.480865647992403 ] ] } },
{ "type": "Feature", "properties": { "clase": "Via principal", "certeza": "Confirmada", "longitud_km": 28.047417073357771 }, "geometry": { "type": "LineString", "coordinates": [ [ 2.72147689628406, 41.790762703548097 ], [ 2.777526327120801, 41.8921870696037 ], [ 2.81322035492927, 41.981980315006901 ], [ 2.84139290115324, 42.026037536123901 ] ] } },
{ "type": "Feature", "properties": { "clase": "Via principal", "certeza": "Confirmada", "longitud_km": 59.905018027523667 }, "geometry": { "type": "LineString", "coordinates": [ [ 2.84139290115324, 42.026037536123901 ], [ 2.8653416021489, 42.033061915793901 ], [ 2.90021157480454, 42.027174017997297 ], [ 2.98514995830434, 41.971507182098605 ], [ 3.01933299016052, 41.968353378581398 ], [ 3.03994520535885, 41.978115752529902 ], [ 3.07623564983727, 42.015013758216902 ], [ 3.09879635670095, 42.083176449729308 ], [ 3.12938933081294, 42.097868576129102 ], [ 3.12561390481158, 42.118773932891003 ], [ 3.10865189046399, 42.138939000048509 ], [ 3.04477139434131, 42.179932320865099 ], [ 2.944214485391841, 42.263549419621306 ] ] } },
{ "type": "Feature", "properties": { "clase": "Via principal", "certeza": "Confirmada", "longitud_km": 31.828215971977578 }, "geometry": { "type": "LineString", "coordinates": [ [ 2.944214485391841, 42.263549419621306 ], [ 2.89604999450356, 42.351515901640198 ], [ 2.88368140037697, 42.41127896216171 ], [ 2.854559357618089, 42.490395318676427 ] ] } },
{ "type": "Feature", "properties": { "clase": "Via principal", "certeza": "Confirmada", "longitud_km": 30.563496355441139 }, "geometry": { "type": "LineString", "coordinates": [ [ 2.84139290115324, 42.026037536123901 ], [ 2.871336600825659, 42.064165806368599 ], [ 2.956534303693441, 42.132366884324497 ], [ 2.97072712912539, 42.152164500193393 ], [ 2.96940527794772, 42.213600809839008 ], [ 2.944214485391841, 42.263549419621306 ] ] } },
{ "type": "Feature", "properties": { "clase": "Via principal", "certeza": "Confirmada", "longitud_km": 90.495332020254239 }, "geometry": { "type": "LineString", "coordinates": [ [ -3.31793108437681, 42.542834522245109 ], [ -3.301451036840401, 42.532840891434702 ], [ -3.23899650933174, 42.53566941422001 ], [ -3.17619509378284, 42.526060956370998 ], [ -3.159551059689651, 42.515727647622903 ], [ -3.148678761484041, 42.491140068950699 ], [ -3.05750086237878, 42.496251674123997 ], [ -2.95387835550421, 42.463434220555698 ], [ -2.86417362429459, 42.420148348439902 ], [ -2.74086781142946, 42.396251234787997 ], [ -2.66979788159396, 42.395278723438103 ], [ -2.43646373125873, 42.426807005885998 ], [ -2.289829795155709, 42.428502402025998 ] ] } },
{ "type": "Feature", "properties": { "clase": "Via principal", "certeza": "Confirmada", "longitud_km": 262.03765502323131 }, "geometry": { "type": "MultiLineString", "coordinates": [ [ [ -1.09347353129787, 41.735717498760799 ], [ -1.28710225387284, 41.755787220144903 ], [ -1.532586056605554, 41.843168617474952 ] ], [ [ -1.582632086133016, 41.864267308618466 ], [ -1.65507116846362, 41.881754406698903 ], [ -1.73201176205568, 41.888593638732502 ], [ -2.15116939354946, 41.784979656428895 ], [ -2.46100242956336, 41.792924857589597 ], [ -2.52812892777808, 41.750309690469209 ], [ -2.65249026379701, 41.735354629223501 ], [ -2.772610362305481, 41.692429345358697 ], [ -2.87398785082597, 41.67855685313819 ], [ -3.04254436115751, 41.6845911087307 ], [ -3.2403171145461, 41.6680588145583 ], [ -3.87194001812702, 41.699740142059397 ], [ -4.144376434103091, 41.691989803799601 ] ] ] } },
{ "type": "Feature", "properties": { "clase": "Via principal", "certeza": "Confirmada", "longitud_km": 147.09637736715746 }, "geometry": { "type": "LineString", "coordinates": [ [ -0.882665969811799, 41.639606671827998 ], [ -0.718013217006457, 41.597443568767105 ], [ -0.604476340310972, 41.547143198363905 ], [ -0.499317420551465, 41.450040737492209 ], [ -0.474243232014393, 41.367537148840299 ], [ -0.413959181555864, 41.408623519363502 ], [ -0.367446523591813, 41.427902634361395 ], [ -0.084521127728425, 41.483370891238302 ], [ 0.139136771014915, 41.50685160392181 ], [ 0.335453795502406, 41.496997719145298 ], [ 0.411146518672062, 41.507699412224603 ], [ 0.491547939269842, 41.534995299896899 ], [ 0.620066039721517, 41.609121579347097 ] ] } },
{ "type": "Feature", "properties": { "clase": "Via principal", "certeza": "Confirmada", "longitud_km": 142.12793433847264 }, "geometry": { "type": "LineString", "coordinates": [ [ -0.746544606050433, 41.908117523734397 ], [ -0.672201424627072, 41.980239044385193 ], [ -0.515316002536602, 42.076791910345001 ], [ -0.454663617658766, 42.125220701192703 ], [ -0.398542620738258, 42.099179079803008 ], [ -0.30614411957102, 42.088861512299701 ], [ -0.127456309752161, 42.009512271460601 ], [ -0.02039179288213, 41.948785673862901 ], [ 0.174024252733748, 41.871325985592001 ], [ 0.293066668446982, 41.837229532592801 ], [ 0.516393295462994, 41.664961091531602 ], [ 0.620066039721517, 41.609121579347097 ] ] } },
{ "type": "Feature", "properties": { "clase": "Via principal", "certeza": "Confirmada", "longitud_km": 48.814671172498137 }, "geometry": { "type": "LineString", "coordinates": [ [ 2.72147689628406, 41.790762703548097 ], [ 2.71261411858925, 41.756802227716499 ], [ 2.71817169162154, 41.735708465877003 ], [ 2.77307141633683, 41.674662617140903 ], [ 2.77232674889893, 41.666876256060696 ], [ 2.48912893443402, 41.569723862871903 ], [ 2.41439116263222, 41.5315377803473 ] ] } },
{ "type": "Feature", "properties": { "clase": "Via principal", "certeza": "Confirmada", "longitud_km": 15.653713580669711 }, "geometry": { "type": "LineString", "coordinates": [ [ -6.6518445729788, 42.627842864803 ], [ -6.59513871441784, 42.592100322946798 ], [ -6.55552092629673, 42.579898549576697 ], [ -6.483191404821, 42.580300916053091 ] ] } },
{ "type": "Feature", "properties": { "clase": "Via principal", "certeza": "Confirmada", "longitud_km": 7.4060327784678419 }, "geometry": { "type": "LineString", "coordinates": [ [ -6.483191404821, 42.580300916053091 ], [ -6.46398792675291, 42.590211854805602 ], [ -6.43524043179766, 42.6346535082887 ] ] } },
{ "type": "Feature", "properties": { "clase": "Via principal", "certeza": "Confirmada", "longitud_km": 18.976652283825509 }, "geometry": { "type": "LineString", "coordinates": [ [ -6.43524043179766, 42.6346535082887 ], [ -6.47694656759576, 42.653260360994402 ], [ -6.55352626841231, 42.6330678752078 ], [ -6.6518445729788, 42.627842864803 ] ] } },
{ "type": "Feature", "properties": { "clase": "Via principal", "certeza": "Confirmada", "longitud_km": 45.590060945706377 }, "geometry": { "type": "LineString", "coordinates": [ [ -6.483191404821, 42.580300916053091 ], [ -6.3352622696565, 42.511866123321305 ], [ -6.282492333698841, 42.496694434440201 ], [ -6.08914876873437, 42.500531264916397 ], [ -5.959953255015151, 42.4904257723367 ] ] } },
{ "type": "Feature", "properties": { "clase": "Via principal", "certeza": "Confirmada", "longitud_km": 45.983547027063622 }, "geometry": { "type": "LineString", "coordinates": [ [ -5.959953255015151, 42.4904257723367 ], [ -6.01250573489367, 42.515238587128195 ], [ -6.072906237555729, 42.560391196445799 ], [ -6.16344824801747, 42.592014214933698 ], [ -6.191203625606651, 42.623958557154808 ], [ -6.29451558219255, 42.625841315537897 ], [ -6.366143342463279, 42.653208941433498 ], [ -6.43524043179766, 42.6346535082887 ] ] } },
{ "type": "Feature", "properties": { "clase": "Via principal", "certeza": "Confirmada", "longitud_km": 7.7132772690829423 }, "geometry": { "type": "LineString", "coordinates": [ [ -5.959953255015151, 42.4904257723367 ], [ -5.91936214677524, 42.428696221390901 ] ] } },
{ "type": "Feature", "properties": { "clase": "Via principal", "certeza": "Hipotética", "longitud_km": 58.672452410401554 }, "geometry": { "type": "LineString", "coordinates": [ [ -5.959953255015151, 42.4904257723367 ], [ -5.888184982064299, 42.485484877848698 ], [ -5.792396739376391, 42.494047201376404 ], [ -5.73332285704782, 42.51293445049 ], [ -5.666858484571141, 42.550180537903806 ], [ -5.58732751441568, 42.533916237421899 ], [ -5.46147557959129, 42.473567063066902 ], [ -5.367634967982649, 42.479192969788301 ], [ -5.298671748286891, 42.473579103604202 ] ] } },
{ "type": "Feature", "properties": { "clase": "Via principal", "certeza": "Confirmada", "longitud_km": 46.764898481429164 }, "geometry": { "type": "LineString", "coordinates": [ [ -5.76307488857795, 43.214702344010902 ], [ -5.745858785752279, 43.258553782088399 ], [ -5.78004235300436, 43.296605945955598 ], [ -5.81795521597135, 43.313883278226506 ], [ -5.83264487533241, 43.371617755375198 ], [ -5.80895647107177, 43.396017334147899 ], [ -5.81740079104935, 43.441582130342603 ], [ -5.80799472574543, 43.455217232652899 ], [ -5.769858329596399, 43.475355280759992 ], [ -5.70266935355365, 43.529141746647497 ], [ -5.65686177247632, 43.543073149812706 ] ] } },
{ "type": "Feature", "properties": { "clase": "Via principal", "certeza": "Confirmada", "longitud_km": 175.51045809285301 }, "geometry": { "type": "LineString", "coordinates": [ [ -5.298671748286891, 42.473579103604202 ], [ -5.117429262750651, 42.463561754028909 ], [ -4.96531186642294, 42.421068424237497 ], [ -4.85552734519569, 42.407183865892108 ], [ -4.760985783560761, 42.373695029557609 ], [ -4.63185736860337, 42.353092782120299 ], [ -4.54738833238167, 42.365621555950597 ], [ -4.38807077286341, 42.418861262006203 ], [ -4.26583929387406, 42.439336822831002 ], [ -4.1456395722921, 42.407266242447101 ], [ -4.08182733465627, 42.411717420264907 ], [ -3.974979633366579, 42.396458812651801 ], [ -3.793103261531591, 42.347556504453209 ], [ -3.73497849601306, 42.349602069396603 ], [ -3.669644173621069, 42.363730110746502 ], [ -3.47635199857905, 42.4361388714713 ], [ -3.433444545751521, 42.477290039624606 ], [ -3.31793108437681, 42.542834522245109 ] ] } },
{ "type": "Feature", "properties": { "clase": "Via principal", "certeza": "Confirmada", "longitud_km": 57.512853141125234 }, "geometry": { "type": "LineString", "coordinates": [ [ -5.91936214677524, 42.428696221390901 ], [ -5.899288874035009, 42.427652261621098 ], [ -5.85481336875988, 42.407979152575798 ], [ -5.776767935403239, 42.3192516590696 ], [ -5.71152230098432, 42.283969072864998 ], [ -5.67045983324012, 42.213988612528098 ], [ -5.58476281349972, 42.115555163898499 ], [ -5.5129681094183, 42.0849464816039 ], [ -5.45888581118732, 42.075447000702802 ] ] } },
{ "type": "Feature", "properties": { "clase": "Via principal", "certeza": "Confirmada", "longitud_km": 62.045000662351633 }, "geometry": { "type": "LineString", "coordinates": [ [ -5.45888581118732, 42.075447000702802 ], [ -5.55907325114528, 42.0003669584204 ], [ -5.61365607627951, 41.926776029259202 ], [ -5.652542164143849, 41.756105908431103 ], [ -5.63612469055519, 41.690593879953298 ], [ -5.58584464740987, 41.569912109717698 ] ] } },
{ "type": "Feature", "properties": { "clase": "Via principal", "certeza": "Hipotética", "longitud_km": 135.44136067637959 }, "geometry": { "type": "LineString", "coordinates": [ [ -5.58584464740987, 41.569912109717698 ], [ -5.482515463831769, 41.5944886189139 ], [ -5.3714941340365, 41.598440158246298 ], [ -5.23737039529494, 41.582679179906989 ], [ -5.19465073887082, 41.621626535891401 ], [ -5.153418543436831, 41.689816470915105 ], [ -5.10905173880264, 41.706393752829491 ], [ -4.990297214273329, 41.702358466517197 ], [ -4.75329602686227, 41.64829530066811 ], [ -4.68520521054625, 41.642629271237503 ], [ -4.62680655947738, 41.578130166548306 ], [ -4.591004277490661, 41.481380817836296 ], [ -4.52426294542872, 41.436586479053403 ], [ -4.4806372715652, 41.38081518134959 ], [ -4.43773450345183, 41.341640707019202 ], [ -4.34495478961736, 41.2746542971379 ] ] } },
{ "type": "Feature", "properties": { "clase": "Via principal", "certeza": "Hipotética", "longitud_km": 121.39150159149182 }, "geometry": { "type": "LineString", "coordinates": [ [ -5.45888581118732, 42.075447000702802 ], [ -5.195054219875601, 42.047657001917202 ], [ -4.98173973621437, 42.007895288788603 ], [ -4.86620454908453, 41.961927230834803 ], [ -4.766618392868731, 41.935588093291301 ], [ -4.50095518969329, 41.776380855979404 ], [ -4.246867997069269, 41.769902282999503 ], [ -4.144376434103091, 41.691989803799601 ] ] } },
{ "type": "Feature", "properties": { "clase": "Via principal", "certeza": "Confirmada", "longitud_km": 2.5085307305406777 }, "geometry": { "type": "LineString", "coordinates": [ [ -4.83616560373749, 37.8269763591029 ], [ -4.82601334116471, 37.848063233021406 ] ] } },
{ "type": "Feature", "properties": { "clase": "Via principal", "certeza": "Confirmada", "longitud_km": 68.396430691181635 }, "geometry": { "type": "LineString", "coordinates": [ [ -6.408382200784439, 38.303990112404897 ], [ -6.419503870414569, 38.332112441539103 ], [ -6.39221995383935, 38.4235456550254 ], [ -6.39642046622644, 38.633230343485302 ], [ -6.41578569674123, 38.846005897490599 ], [ -6.37801759368901, 38.905792358646202 ] ] } },
{ "type": "Feature", "properties": { "clase": "Via principal", "certeza": "Confirmada", "longitud_km": 27.621322044063223 }, "geometry": { "type": "LineString", "coordinates": [ [ -5.6875527752437, 37.454320229260297 ], [ -5.46743352455917, 37.476250057738199 ], [ -5.379601152794569, 37.494721123332297 ] ] } },
{ "type": "Feature", "properties": { "clase": "Via principal", "certeza": "Confirmada", "longitud_km": 21.248258433764882 }, "geometry": { "type": "MultiLineString", "coordinates": [ [ [ -5.379601152794569, 37.494721123332297 ], [ -5.31586577770942, 37.503518134020602 ], [ -5.24042940241809, 37.495238288402163 ] ], [ [ -5.208315385054225, 37.493643315455508 ], [ -5.162862956254997, 37.504126059439301 ] ] ] } },
{ "type": "Feature", "properties": { "clase": "Via principal", "certeza": "Confirmada", "longitud_km": 28.830880746405708 }, "geometry": { "type": "LineString", "coordinates": [ [ -4.987380923444321, 37.640425448808237 ], [ -4.924612443817641, 37.686590054147402 ], [ -4.87498692845971, 37.749553193460002 ], [ -4.83616560373749, 37.8269763591029 ] ] } },
{ "type": "Feature", "properties": { "clase": "Via principal", "certeza": "Confirmada", "longitud_km": 50.378646020024846 }, "geometry": { "type": "LineString", "coordinates": [ [ -5.968627857217511, 37.414134990313997 ], [ -5.9376570103745, 37.365324153707803 ], [ -5.95407090417672, 37.299364471508497 ], [ -5.89107188082491, 37.200347375501103 ], [ -5.84660257482355, 37.165288598787697 ], [ -5.790883799469861, 37.0850917551832 ], [ -5.78546067279456, 37.050364185749103 ], [ -5.79650030108644, 37.0098482807674 ] ] } },
{ "type": "Feature", "properties": { "clase": "Via principal", "certeza": "Confirmada", "longitud_km": 84.891398275254474 }, "geometry": { "type": "LineString", "coordinates": [ [ -6.20769305963943, 36.439189025729497 ], [ -6.18171957395964, 36.470922782593604 ], [ -6.145254969503821, 36.484462789235799 ], [ -6.122993415104511, 36.578150178027698 ], [ -6.12798307321416, 36.617189405723003 ], [ -6.16678683946585, 36.638758483601102 ], [ -6.181328226499391, 36.744910483741897 ], [ -6.17399688232791, 36.765071407776801 ], [ -6.03738300643223, 36.851720234582892 ], [ -5.96321489677629, 36.913044111886101 ], [ -5.79650030108644, 37.0098482807674 ] ] } },
{ "type": "Feature", "properties": { "clase": "Via principal", "certeza": "Confirmada", "longitud_km": 14.968819419864994 }, "geometry": { "type": "LineString", "coordinates": [ [ -6.20769305963943, 36.439189025729497 ], [ -6.235710668934751, 36.431476423109608 ], [ -6.278292973949497, 36.501852409882808 ] ] } },
{ "type": "Feature", "properties": { "clase": "Via principal", "certeza": "Confirmada", "longitud_km": 156.21129211215919 }, "geometry": { "type": "LineString", "coordinates": [ [ -8.658114006197351, 42.745419808205 ], [ -8.65709184377827, 42.767255407644008 ], [ -8.626801288405, 42.823303806937702 ], [ -8.536801408522271, 42.888654824356792 ], [ -8.49094061753571, 42.956188092063002 ], [ -8.47329799012155, 43.0257185693415 ], [ -8.46971049167762, 43.083551681345803 ], [ -8.487577676353242, 43.160582993080197 ], [ -8.447413891304111, 43.2884232456124 ], [ -8.41124886960567, 43.3569382993266 ], [ -8.38294623295554, 43.319354882407097 ], [ -8.277201269372632, 43.301994107914197 ], [ -8.07736757770305, 43.205874004979904 ], [ -7.994050510458951, 43.182994513993499 ], [ -7.87400040238924, 43.173737269659298 ], [ -7.735187453372991, 43.1428730358056 ], [ -7.655508708556672, 43.088996498053497 ], [ -7.611659576969597, 43.026098482127303 ], [ -7.571236535434509, 43.011329867256698 ] ] } },
{ "type": "Feature", "properties": { "clase": "Via principal", "certeza": "Confirmada", "longitud_km": 9.7018567609975772 }, "geometry": { "type": "LineString", "coordinates": [ [ -8.658114006197351, 42.745419808205 ], [ -8.62052616807321, 42.7489595717526 ], [ -8.55066758855058, 42.777806505641202 ] ] } },
{ "type": "Feature", "properties": { "clase": "Via principal", "certeza": "Confirmada", "longitud_km": 88.967228151878857 }, "geometry": { "type": "LineString", "coordinates": [ [ -8.55066758855058, 42.777806505641202 ], [ -8.48878742496996, 42.803675525213301 ], [ -8.3272433191548, 42.893420813876702 ], [ -8.230536280492609, 42.922097250748593 ], [ -8.107591848188152, 42.923979998788809 ], [ -8.00548307263589, 42.910690418477799 ], [ -7.922229068023099, 42.888303659714303 ], [ -7.87831265711281, 42.899403394442096 ], [ -7.80262559782105, 42.934170708707697 ], [ -7.60381986000914, 42.984855139630596 ], [ -7.57806105910586, 42.999146250046998 ], [ -7.571236535434509, 43.011329867256698 ] ] } },
{ "type": "Feature", "properties": { "clase": "Via principal", "certeza": "Confirmada", "longitud_km": 62.538538458470207 }, "geometry": { "type": "LineString", "coordinates": [ [ -8.651034642344886, 41.974788293239918 ], [ -8.649809715606249, 42.044579570444498 ] ] } },
{ "type": "Feature", "properties": { "clase": "Via principal", "certeza": "Confirmada", "longitud_km": 79.569590053722138 }, "geometry": { "type": "LineString", "coordinates": [ [ -8.649809715606249, 42.044579570444498 ], [ -8.640644514681179, 42.144942011105101 ], [ -8.616154925476501, 42.218526306273198 ], [ -8.607491086887872, 42.337836919538205 ], [ -8.64389979906503, 42.377704055766209 ], [ -8.651123004940951, 42.4024636606432 ], [ -8.646775061947761, 42.602013944924011 ], [ -8.65474157072067, 42.631064840339697 ], [ -8.648258285584721, 42.670415440979198 ], [ -8.658114006197351, 42.745419808205 ] ] } },
{ "type": "Feature", "properties": { "clase": "Via principal", "certeza": "Confirmada", "longitud_km": 66.77923283153018 }, "geometry": { "type": "LineString", "coordinates": [ [ -2.95267544845669, 38.597647912755491 ], [ -2.88419148535487, 38.622741613001097 ], [ -2.7952133133437, 38.672443968417397 ], [ -2.3701607932251, 38.985328055014598 ] ] } },
{ "type": "Feature", "properties": { "clase": "Via principal", "certeza": "Confirmada", "longitud_km": 10.569211412383993 }, "geometry": { "type": "LineString", "coordinates": [ [ -3.65251332720406, 38.063638888772203 ], [ -3.76756301355037, 38.035051087701703 ] ] } },
{ "type": "Feature", "properties": { "clase": "Via principal", "certeza": "Confirmada", "longitud_km": 106.78183688868855 }, "geometry": { "type": "LineString", "coordinates": [ [ -3.76756301355037, 38.035051087701703 ], [ -3.82429706124495, 38.030250350122401 ], [ -3.88820194932255, 38.043171243874099 ], [ -3.99619063409227, 38.027618722545306 ], [ -4.0835028426798, 38.042145650589497 ], [ -4.14424655478101, 38.0691249207987 ], [ -4.18451766155715, 38.073805486890599 ], [ -4.193645708162069, 38.066966180800101 ], [ -4.19316616859878, 38.044234082330995 ], [ -4.201453169315611, 38.031641580573101 ], [ -4.220231264553969, 38.026214580721899 ], [ -4.25761885113327, 38.034257237130397 ], [ -4.271305050101149, 38.014911564941997 ], [ -4.30709491557403, 37.999641533501098 ], [ -4.398397443348571, 38.0196123737162 ], [ -4.47374099496053, 37.995452781381402 ], [ -4.50268724127409, 38.004269072565002 ], [ -4.53513461301697, 37.99901131584901 ], [ -4.590419102338149, 37.971861033393509 ], [ -4.62739753505168, 37.940055889744599 ], [ -4.73386894644189, 37.903708324815604 ], [ -4.82601334116471, 37.848063233021406 ] ] } },
{ "type": "Feature", "properties": { "clase": "Via principal", "certeza": "Confirmada", "longitud_km": 99.455443381748452 }, "geometry": { "type": "LineString", "coordinates": [ [ -0.439492732596623, 39.183029082255899 ], [ -0.356996119159422, 39.502003426685299 ], [ -0.332390778437122, 39.542934605069 ], [ -0.299335908406903, 39.576932507052405 ], [ -0.293989275074714, 39.6137377652271 ], [ -0.238212677861116, 39.710865068918707 ], [ -0.145449316958043, 39.823053723040204 ], [ -0.113926769783301, 39.922489084332206 ], [ -0.117241660081223, 39.957182678103209 ], [ -0.141025272287244, 40.001466652249292 ], [ -0.129635489680778, 40.017483554115898 ] ] } },
{ "type": "Feature", "properties": { "clase": "Via principal", "certeza": "Confirmada", "longitud_km": 64.321805626645158 }, "geometry": { "type": "LineString", "coordinates": [ [ -6.37801759368901, 38.905792358646202 ], [ -6.37125281157733, 38.991503649959498 ], [ -6.31528473846091, 39.116850768551693 ], [ -6.313311826992891, 39.14886548062821 ], [ -6.331015216452859, 39.223425403239098 ], [ -6.37469735302524, 39.292928967027599 ], [ -6.3963281068388, 39.343467465549701 ], [ -6.39532566693178, 39.418009461902507 ], [ -6.40617790126552, 39.462999665934298 ] ] } },
{ "type": "Feature", "properties": { "clase": "Via principal", "certeza": "Hipotética", "longitud_km": 33.765631521152486 }, "geometry": { "type": "LineString", "coordinates": [ [ -7.002682707721297, 39.037071708812149 ], [ -6.910789920236371, 39.000483075243409 ], [ -6.87599805699302, 38.954962366435701 ], [ -6.866043005167821, 38.913952963736108 ] ] } },
{ "type": "Feature", "properties": { "clase": "Via principal", "certeza": "Hipotética", "longitud_km": 30.103099414803427 }, "geometry": { "type": "LineString", "coordinates": [ [ -6.866043005167821, 38.913952963736108 ], [ -6.990767511191521, 38.917798929028898 ], [ -7.062285071991999, 38.941197321133146 ] ] } },
{ "type": "Feature", "properties": { "clase": "Via principal", "certeza": "Hipotética", "longitud_km": 45.44478638574622 }, "geometry": { "type": "LineString", "coordinates": [ [ -6.866043005167821, 38.913952963736108 ], [ -6.77685394016898, 38.899388035746099 ], [ -6.713833826170911, 38.867216900861401 ], [ -6.6813416213088, 38.860234374033702 ], [ -6.578501830016021, 38.870447601234702 ], [ -6.44035115945141, 38.919833651549197 ], [ -6.41250202918762, 38.919620273272699 ], [ -6.37801759368901, 38.905792358646202 ] ] } },
{ "type": "Feature", "properties": { "clase": "Via principal", "certeza": "Hipotética", "longitud_km": 19.733374417200832 }, "geometry": { "type": "LineString", "coordinates": [ [ -6.37801759368901, 38.905792358646202 ], [ -6.276948305464419, 38.933573827716792 ], [ -6.157219881402981, 38.940438753468499 ] ] } },
{ "type": "Feature", "properties": { "clase": "Via principal", "certeza": "Hipotética", "longitud_km": 34.252715286015118 }, "geometry": { "type": "LineString", "coordinates": [ [ -6.157219881402981, 38.940438753468499 ], [ -5.982955617689941, 38.936325557624897 ], [ -5.77849601822709, 38.870553406872801 ] ] } },
{ "type": "Feature", "properties": { "clase": "Via principal", "certeza": "Hipotética", "longitud_km": 83.659217227239807 }, "geometry": { "type": "LineString", "coordinates": [ [ -5.77849601822709, 38.870553406872801 ], [ -5.69143052744079, 38.893991689852598 ], [ -5.63940802034222, 38.897733019184102 ], [ -5.58183017162658, 38.881765341475202 ], [ -5.50199153657115, 38.825903589767996 ], [ -5.43384309961781, 38.7946978685803 ], [ -5.31292829212023, 38.787967123758392 ], [ -5.17273016698703, 38.800073964626897 ], [ -5.06851059845211, 38.7831576985946 ], [ -4.9002369550271, 38.6953881474413 ] ] } },
{ "type": "Feature", "properties": { "clase": "Via principal", "certeza": "Hipotética", "longitud_km": 26.51782193069122 }, "geometry": { "type": "MultiLineString", "coordinates": [ [ [ -4.83616560373749, 37.8269763591029 ], [ -4.8153021836531, 37.752647833358594 ], [ -4.819224826461549, 37.71180332314529 ], [ -4.81201521452279, 37.677421789752486 ] ], [ [ -4.811923899952401, 37.677179151055064 ], [ -4.76733719331805, 37.598876109357001 ] ] ] } },
{ "type": "Feature", "properties": { "clase": "Via principal", "certeza": "Hipotética", "longitud_km": 3.4660344720745182 }, "geometry": { "type": "LineString", "coordinates": [ [ -6.086379801702619, 37.450545639646897 ], [ -6.08361626588505, 37.4196130378524 ] ] } },
{ "type": "Feature", "properties": { "clase": "Via principal", "certeza": "Hipotética", "longitud_km": 13.19456733942117 }, "geometry": { "type": "LineString", "coordinates": [ [ -6.086379801702619, 37.450545639646897 ], [ -6.094733716128309, 37.505461850743501 ], [ -6.07777854065499, 37.524056810052599 ], [ -6.070739298071189, 37.563230063913899 ] ] } },
{ "type": "Feature", "properties": { "clase": "Via principal", "certeza": "Hipotética", "longitud_km": 7.7852255845303713 }, "geometry": { "type": "LineString", "coordinates": [ [ -6.070739298071189, 37.563230063913899 ], [ -6.014611985095931, 37.5092779265632 ] ] } },
{ "type": "Feature", "properties": { "clase": "Via principal", "certeza": "Hipotética", "longitud_km": 9.3958363623285202 }, "geometry": { "type": "LineString", "coordinates": [ [ -6.014611985095931, 37.5092779265632 ], [ -6.05719738830087, 37.488280839782504 ], [ -6.086379801702619, 37.450545639646897 ] ] } },
{ "type": "Feature", "properties": { "clase": "Via principal", "certeza": "Hipotética", "longitud_km": 91.985551940869399 }, "geometry": { "type": "LineString", "coordinates": [ [ -6.070739298071189, 37.563230063913899 ], [ -6.03699951653576, 37.6803242420266 ], [ -6.14913243064675, 37.793200749084299 ], [ -6.153890883063509, 37.814135831388398 ], [ -6.1476888927824, 37.880061757653301 ], [ -6.19340502177055, 37.926292990262404 ], [ -6.31205776987311, 38.1085883935677 ], [ -6.377814847522641, 38.26121769002291 ], [ -6.408382200784439, 38.303990112404897 ] ] } },
{ "type": "Feature", "properties": { "clase": "Via principal", "certeza": "Hipotética", "longitud_km": 124.26807744972371 }, "geometry": { "type": "LineString", "coordinates": [ [ -6.65504652079098, 37.691723582491804 ], [ -6.655226381477169, 37.722307021120692 ], [ -6.673663540912379, 37.7517960084839 ], [ -6.836559150394399, 37.895660629345599 ], [ -6.85271080260901, 37.904343032180201 ], [ -6.88896673291592, 37.900913934204198 ], [ -6.92287942936375, 37.911680621228598 ], [ -6.978014767805049, 37.961119070987699 ], [ -7.0455557397087, 37.952670037180901 ], [ -7.142963396020561, 37.9625456557905 ], [ -7.288241751561313, 37.940069236369048 ] ] } },
{ "type": "Feature", "properties": { "clase": "Via principal", "certeza": "Hipotética", "longitud_km": 106.39118160051007 }, "geometry": { "type": "LineString", "coordinates": [ [ -6.157219881402981, 38.940438753468499 ], [ -6.09087580052936, 39.042257911642999 ], [ -5.95959412203928, 39.1193792808632 ], [ -5.93033135882695, 39.156750365038498 ], [ -5.906962109817079, 39.228151186598097 ], [ -5.900187254896119, 39.282258358560398 ], [ -5.917965242253951, 39.396793225378602 ], [ -5.917405760715191, 39.441730332426197 ], [ -6.01131460116627, 39.434051151930205 ], [ -6.13575507247354, 39.438362095168301 ], [ -6.365483371783609, 39.4676063861193 ], [ -6.40617790126552, 39.462999665934298 ] ] } },
{ "type": "Feature", "properties": { "clase": "Via principal", "certeza": "Hipotética", "longitud_km": 84.845718752993065 }, "geometry": { "type": "LineString", "coordinates": [ [ -5.341791043621379, 38.2624217618663 ], [ -5.29588869387482, 38.360009518950704 ], [ -5.2993820623517, 38.412879734550799 ], [ -5.39063571189333, 38.528729591150103 ], [ -5.41873820569478, 38.592993668061901 ], [ -5.641400401895701, 38.7236298514498 ], [ -5.72972006568451, 38.803769659728594 ], [ -5.77849601822709, 38.870553406872801 ] ] } },
{ "type": "Feature", "properties": { "clase": "Via principal", "certeza": "Hipotética", "longitud_km": 25.312288405556757 }, "geometry": { "type": "LineString", "coordinates": [ [ -5.011602971990149, 37.146366197577201 ], [ -4.92992588260349, 37.2193810964419 ], [ -4.808163345752041, 37.3054309916322 ] ] } },
{ "type": "Feature", "properties": { "clase": "Via principal", "certeza": "Hipotética", "longitud_km": 36.886406854282328 }, "geometry": { "type": "LineString", "coordinates": [ [ -4.808163345752041, 37.3054309916322 ], [ -4.684059086906159, 37.271864613664405 ], [ -4.64176175364991, 37.241967018052101 ], [ -4.61890912575995, 37.191395424322003 ], [ -4.59844225258468, 37.065205300391099 ] ] } },
{ "type": "Feature", "properties": { "clase": "Via principal", "certeza": "Hipotética", "longitud_km": 6.3180193395237296 }, "geometry": { "type": "LineString", "coordinates": [ [ -4.59844225258468, 37.065205300391099 ], [ -4.57019551180647, 37.013274512092302 ] ] } },
{ "type": "Feature", "properties": { "clase": "Via principal", "certeza": "Hipotética", "longitud_km": 15.010530827932149 }, "geometry": { "type": "LineString", "coordinates": [ [ -5.011602971990149, 37.146366197577201 ], [ -5.020920539763849, 37.190299277861591 ], [ -5.04148613419558, 37.231259514751997 ], [ -5.07715194771761, 37.267232147981197 ] ] } },
{ "type": "Feature", "properties": { "clase": "Via principal", "certeza": "Hipotética", "longitud_km": 86.453356094078742 }, "geometry": { "type": "LineString", "coordinates": [ [ -5.07715194771761, 37.267232147981197 ], [ -5.110337523519939, 37.257140615726001 ], [ -5.14984094802056, 37.261736759341801 ], [ -5.20454174530781, 37.219977363666104 ], [ -5.26340116833702, 37.250003526468802 ], [ -5.379337806279139, 37.260107685265297 ], [ -5.58838581875359, 37.299754998608698 ], [ -5.71770034577323, 37.346874896612697 ], [ -5.759968057083, 37.348638865492397 ], [ -5.86731569238785, 37.4092280275676 ], [ -5.920359406098031, 37.405703558091197 ], [ -5.968627857217511, 37.414134990313997 ] ] } },
{ "type": "Feature", "properties": { "clase": "Via principal", "certeza": "Hipotética", "longitud_km": 31.792641205711782 }, "geometry": { "type": "LineString", "coordinates": [ [ -5.91458335560213, 36.46104644587939 ], [ -5.92026608551306, 36.362639084451402 ], [ -5.951351408265989, 36.295955594619301 ], [ -5.95676596681007, 36.260401742950791 ], [ -5.91615067232948, 36.188020834610597 ] ] } },
{ "type": "Feature", "properties": { "clase": "Via principal", "certeza": "Hipotética", "longitud_km": 41.694088027303131 }, "geometry": { "type": "LineString", "coordinates": [ [ -5.91615067232948, 36.188020834610597 ], [ -5.991963313403031, 36.1866127073516 ], [ -6.02988113327374, 36.202984403657503 ], [ -6.07799117367938, 36.273760490368907 ], [ -6.12413305650148, 36.314465035466291 ], [ -6.20769305963943, 36.439189025729497 ] ] } },
{ "type": "Feature", "properties": { "clase": "Via principal", "certeza": "Hipotética", "longitud_km": 3.0758322372722171 }, "geometry": { "type": "LineString", "coordinates": [ [ -5.43529665729085, 36.175477334385299 ], [ -5.41142547731094, 36.195325705610898 ] ] } },
{ "type": "Feature", "properties": { "clase": "Via principal", "certeza": "Hipotética", "longitud_km": 65.652693561676855 }, "geometry": { "type": "LineString", "coordinates": [ [ -5.91458335560213, 36.46104644587939 ], [ -5.838819587371631, 36.544783936805104 ], [ -5.78965845070991, 36.6186984355083 ], [ -5.8157700739242, 36.698287060210809 ], [ -5.818664490685381, 36.74110715851851 ], [ -5.8145952320428, 36.831944007322001 ], [ -5.80828060021154, 36.857946631593002 ], [ -5.786639292990049, 36.890099731856999 ], [ -5.780459062600029, 36.928213928720702 ], [ -5.779570537155881, 36.974119022804302 ], [ -5.79650030108644, 37.0098482807674 ] ] } },
{ "type": "Feature", "properties": { "clase": "Via principal", "certeza": "Hipotética", "longitud_km": 86.726684344687641 }, "geometry": { "type": "LineString", "coordinates": [ [ -8.649809715606249, 42.044579570444498 ], [ -8.58594181745713, 42.073840706273806 ], [ -8.535994932501209, 42.116049549275601 ], [ -8.526970640413278, 42.134392552169601 ], [ -8.533731560667562, 42.229014712175598 ], [ -8.52786691742002, 42.429439590666597 ], [ -8.54664732941348, 42.491969206446598 ], [ -8.548909109432479, 42.538102388180597 ], [ -8.56785379634195, 42.62224786671851 ], [ -8.556087120168099, 42.678140979151202 ], [ -8.558657175941461, 42.756832966094102 ], [ -8.55066758855058, 42.777806505641202 ] ] } },
{ "type": "Feature", "properties": { "clase": "Via principal", "certeza": "Hipotética", "longitud_km": 55.535580119667713 }, "geometry": { "type": "LineString", "coordinates": [ [ -4.83616560373749, 37.8269763591029 ], [ -4.53210054595834, 37.8616093498457 ], [ -4.44232783473961, 37.858981859597101 ], [ -4.310503162389541, 37.893895749780008 ], [ -4.21582044847402, 37.9011377365428 ] ] } },
{ "type": "Feature", "properties": { "clase": "Via principal", "certeza": "Hipotética", "longitud_km": 39.210887524586482 }, "geometry": { "type": "LineString", "coordinates": [ [ -4.603125264483891, 37.349425066480201 ], [ -4.589839264076759, 37.324065215726307 ], [ -4.54912307711166, 37.282526551234795 ], [ -4.54222606748173, 37.261629975858597 ], [ -4.57313656909722, 37.129445558898098 ], [ -4.57019551180647, 37.013274512092302 ] ] } },
{ "type": "Feature", "properties": { "clase": "Via principal", "certeza": "Hipotética", "longitud_km": 33.967370412570233 }, "geometry": { "type": "LineString", "coordinates": [ [ -4.76733719331805, 37.598876109357001 ], [ -4.73373337000425, 37.540791241675997 ], [ -4.72761360701266, 37.471947584424399 ], [ -4.70200607880996, 37.444317819457595 ], [ -4.6330101775058, 37.419935883784007 ], [ -4.61758191972488, 37.4077795447337 ], [ -4.603125264483891, 37.349425066480201 ] ] } },
{ "type": "Feature", "properties": { "clase": "Via principal", "certeza": "Hipotética", "longitud_km": 115.56331065668768 }, "geometry": { "type": "LineString", "coordinates": [ [ -5.41142547731094, 36.195325705610898 ], [ -5.273182175169171, 36.293075795498801 ], [ -5.218322349127189, 36.379295202499705 ], [ -5.176279284910431, 36.4194705935546 ], [ -5.062174778956579, 36.462167754934292 ], [ -4.980435704916999, 36.48234567092269 ], [ -4.906815462481481, 36.516403425424798 ], [ -4.719727537881869, 36.506570401923099 ], [ -4.62521428126322, 36.5279590465124 ], [ -4.602527396136431, 36.570950787089501 ], [ -4.53075835063445, 36.602857444106903 ], [ -4.44792961386703, 36.7038759206797 ], [ -4.41113391734694, 36.725038211913095 ] ] } },
{ "type": "Feature", "properties": { "clase": "Via principal", "certeza": "Hipotética", "longitud_km": 44.197270618913095 }, "geometry": { "type": "LineString", "coordinates": [ [ -4.41113391734694, 36.725038211913095 ], [ -4.479128010259709, 36.742026690281101 ], [ -4.49225110568163, 36.754275187719202 ], [ -4.49316446415351, 36.794907289222593 ], [ -4.50928247985061, 36.860652526979806 ], [ -4.48113314339865, 36.8850649359347 ], [ -4.467117770269641, 36.911305470991302 ], [ -4.46181693574557, 36.952734968564897 ], [ -4.49180329102093, 36.980814922302308 ], [ -4.55177598809694, 36.994915835668401 ], [ -4.57019551180647, 37.013274512092302 ] ] } },
{ "type": "Feature", "properties": { "clase": "Via principal", "certeza": "Hipotética", "longitud_km": 4.4947495287858636 }, "geometry": { "type": "LineString", "coordinates": [ [ -3.63876926954536, 40.218849582340503 ], [ -3.61938068912138, 40.181237753944401 ] ] } },
{ "type": "Feature", "properties": { "clase": "Via principal", "certeza": "Hipotética", "longitud_km": 121.85653788850122 }, "geometry": { "type": "LineString", "coordinates": [ [ -3.61938068912138, 40.181237753944401 ], [ -3.504103831416121, 39.949835311373008 ], [ -3.43791146431585, 39.835570808852808 ], [ -3.3844860043392, 39.796062464522898 ], [ -3.3538967986598, 39.784497287688602 ], [ -3.3367986608006, 39.756200445715095 ], [ -3.30299411432647, 39.724659713174098 ], [ -3.15615874269907, 39.610706698193098 ], [ -3.19232235943242, 39.546741189190897 ], [ -3.29251898556246, 39.418423188819503 ], [ -3.37510433727841, 39.328949339698703 ], [ -3.444718174395121, 39.274241777258801 ] ] } },
{ "type": "Feature", "properties": { "clase": "Via principal", "certeza": "Hipotética", "longitud_km": 52.62399757110768 }, "geometry": { "type": "LineString", "coordinates": [ [ -4.08907072747323, 39.937809836163702 ], [ -3.909690338129871, 39.9761463994598 ], [ -3.693069847610561, 40.054658817742705 ], [ -3.63656883637541, 40.098284049777604 ], [ -3.61938068912138, 40.181237753944401 ] ] } },
{ "type": "Feature", "properties": { "clase": "Via principal", "certeza": "Hipotética", "longitud_km": 342.5284503287624 }, "geometry": { "type": "LineString", "coordinates": [ [ -1.73548583292364, 38.957224776164203 ], [ -1.69564296472156, 39.074598216984207 ], [ -1.71025555042786, 39.127528731777701 ], [ -1.78911562638978, 39.284338684895502 ], [ -1.7830575066913, 39.3343367881386 ], [ -1.73902075746558, 39.398757804832499 ], [ -1.767675205822, 39.49332613754401 ], [ -1.64556643131058, 39.728441123864201 ], [ -1.63552747773619, 39.763538431224397 ], [ -1.842573360139691, 39.976925978527504 ], [ -1.84960461220904, 39.991737222952196 ], [ -1.66382280748979, 40.123309275459306 ], [ -1.61758704622893, 40.170594075845898 ], [ -1.57305966683941, 40.185480766053203 ], [ -1.46130881610023, 40.266095249997399 ], [ -1.49176559124212, 40.330102873365107 ], [ -1.49456060941713, 40.363156172147796 ], [ -1.44312609818105, 40.477551799809305 ], [ -1.378827716568, 40.557101890995597 ], [ -1.40083147514204, 40.717981510272494 ], [ -1.38881349975903, 40.798128765562801 ], [ -1.36899353216597, 40.834984156918402 ], [ -1.31265710307068, 40.879283325001602 ], [ -1.29893097847997, 40.903060039828802 ], [ -1.32155390176193, 41.079255620232303 ], [ -1.31850298141022, 41.119000280489004 ], [ -1.24894970870995, 41.213016629943702 ], [ -1.17287715807526, 41.404127953259902 ], [ -0.882665969811799, 41.639606671827998 ] ] } },
{ "type": "Feature", "properties": { "clase": "Via principal", "certeza": "Hipotética", "longitud_km": 48.750076294116504 }, "geometry": { "type": "LineString", "coordinates": [ [ -3.444718174395121, 39.274241777258801 ], [ -3.38676205679141, 39.203482222482201 ], [ -3.18238767780464, 39.017855801045997 ], [ -3.07828508429277, 38.9432990604328 ] ] } },
{ "type": "Feature", "properties": { "clase": "Via principal", "certeza": "Hipotética", "longitud_km": 62.423217212406236 }, "geometry": { "type": "LineString", "coordinates": [ [ -3.07828508429277, 38.9432990604328 ], [ -2.98183014344203, 38.9593108429019 ], [ -2.78476067030961, 39.007778065001595 ], [ -2.3701607932251, 38.985328055014598 ] ] } },
{ "type": "Feature", "properties": { "clase": "Via principal", "certeza": "Hipotética", "longitud_km": 55.048046446467637 }, "geometry": { "type": "LineString", "coordinates": [ [ -2.3701607932251, 38.985328055014598 ], [ -2.17771298154956, 38.966175601024098 ], [ -1.73548583292364, 38.957224776164203 ] ] } },
{ "type": "Feature", "properties": { "clase": "Via principal", "certeza": "Hipotética", "longitud_km": 40.045596721021496 }, "geometry": { "type": "LineString", "coordinates": [ [ -3.07828508429277, 38.9432990604328 ], [ -3.050140619404601, 38.886384455363299 ], [ -3.01829406697485, 38.773257774668899 ], [ -2.95267544845669, 38.597647912755491 ] ] } },
{ "type": "Feature", "properties": { "clase": "Via principal", "certeza": "Hipotética", "longitud_km": 92.006200441049117 }, "geometry": { "type": "LineString", "coordinates": [ [ -2.95267544845669, 38.597647912755491 ], [ -2.9478775752703, 38.542005108113798 ], [ -2.95336964854196, 38.491757162158599 ], [ -2.98148315479049, 38.450510870547497 ], [ -3.06702597422075, 38.414190762972702 ], [ -3.20942450108287, 38.313403770018098 ], [ -3.25214409462493, 38.295629230762898 ], [ -3.31655982585852, 38.247694150697399 ], [ -3.44771352496334, 38.173110976114501 ], [ -3.468887751356251, 38.143743673963698 ], [ -3.575431872385531, 38.130417821879 ], [ -3.65251332720406, 38.063638888772203 ] ] } },
{ "type": "Feature", "properties": { "clase": "Via principal", "certeza": "Hipotética", "longitud_km": 94.109686237939414 }, "geometry": { "type": "LineString", "coordinates": [ [ -3.65251332720406, 38.063638888772203 ], [ -3.6171698256127, 38.036682268934001 ], [ -3.52410223945891, 37.999831931818399 ], [ -3.44965705074178, 37.9368776070203 ], [ -3.42167428709631, 37.937400564311702 ], [ -3.2761222998878, 37.978864167390903 ], [ -3.1131194468322, 37.869355048960998 ], [ -3.08402075372001, 37.827671202992299 ], [ -3.06153593024334, 37.747903371548503 ], [ -3.03155497384283, 37.687322128448997 ], [ -3.02993051258533, 37.609690417169297 ], [ -3.08620277142663, 37.589018652651902 ] ] } },
{ "type": "Feature", "properties": { "clase": "Via principal", "certeza": "Hipotética", "longitud_km": 65.4923169126277 }, "geometry": { "type": "LineString", "coordinates": [ [ -3.08620277142663, 37.589018652651902 ], [ -3.14705642743713, 37.577640651984908 ], [ -3.20920014414569, 37.603383892789999 ], [ -3.25992945183259, 37.606367834358998 ], [ -3.41364466538649, 37.578768777448602 ], [ -3.457152212586791, 37.581015778542998 ], [ -3.54739338264975, 37.625770656835691 ], [ -3.5961650753813, 37.626667779857598 ], [ -3.631864061890151, 37.699464487234899 ], [ -3.692543362090519, 37.763079181855296 ] ] } },
{ "type": "Feature", "properties": { "clase": "Via principal", "certeza": "Hipotética", "longitud_km": 27.835031701200151 }, "geometry": { "type": "LineString", "coordinates": [ [ -3.692543362090519, 37.763079181855296 ], [ -3.73801956993091, 37.813118288190211 ], [ -3.796102756028189, 37.994907610502402 ] ] } },
{ "type": "Feature", "properties": { "clase": "Via principal", "certeza": "Hipotética", "longitud_km": 39.745365984325304 }, "geometry": { "type": "LineString", "coordinates": [ [ -3.796102756028189, 37.994907610502402 ], [ -3.857130134536551, 38.002649484275899 ], [ -3.9492269293291, 37.982003508895502 ], [ -4.09942463487782, 37.966104244493899 ], [ -4.12319462503089, 37.959665234654196 ], [ -4.21582044847402, 37.9011377365428 ] ] } },
{ "type": "Feature", "properties": { "clase": "Via principal", "certeza": "Hipotética", "longitud_km": 5.2574091263821492 }, "geometry": { "type": "LineString", "coordinates": [ [ -3.796102756028189, 37.994907610502402 ], [ -3.788777199702059, 38.015506206948899 ], [ -3.76756301355037, 38.035051087701703 ] ] } },
{ "type": "Feature", "properties": { "clase": "Via principal", "certeza": "Hipotética", "longitud_km": 34.552317558804369 }, "geometry": { "type": "LineString", "coordinates": [ [ -3.08620277142663, 37.589018652651902 ], [ -3.12335222989548, 37.548175855150909 ], [ -3.145143491090719, 37.471757077767599 ], [ -3.17117415723332, 37.42570549094561 ], [ -3.18122852050809, 37.3873804470377 ], [ -3.16235588297599, 37.328462044003103 ], [ -3.14412344779742, 37.301162167043998 ] ] } },
{ "type": "Feature", "properties": { "clase": "Via principal", "certeza": "Hipotética", "longitud_km": 114.96691911841995 }, "geometry": { "type": "LineString", "coordinates": [ [ -3.14412344779742, 37.301162167043998 ], [ -3.08708402590687, 37.352971474091902 ], [ -3.00488380530943, 37.390127298349903 ], [ -2.94369924767749, 37.430001316284198 ], [ -2.68576234736123, 37.540913549933308 ], [ -2.56542930950289, 37.543537491709692 ], [ -2.42919073535988, 37.560029150545098 ], [ -2.29163887008557, 37.607302125756391 ], [ -2.224722326119061, 37.616469229830798 ], [ -2.08851838472521, 37.6668712982515 ], [ -2.05224275705909, 37.6907560821139 ], [ -1.98327903340842, 37.712425555845599 ] ] } },
{ "type": "Feature", "properties": { "clase": "Via principal", "certeza": "Hipotética", "longitud_km": 41.540844780991463 }, "geometry": { "type": "LineString", "coordinates": [ [ -3.14412344779742, 37.301162167043998 ], [ -3.105640914599761, 37.262020821058606 ], [ -3.04722891995566, 37.226651073897003 ], [ -2.98392124445534, 37.223111930013502 ], [ -2.89514309312195, 37.180549163824502 ], [ -2.79846399386176, 37.152362338161502 ], [ -2.73698064129493, 37.152165120188108 ] ] } },
{ "type": "Feature", "properties": { "clase": "Via principal", "certeza": "Hipotética", "longitud_km": 32.397701655660022 }, "geometry": { "type": "LineString", "coordinates": [ [ -2.73698064129493, 37.152165120188108 ], [ -2.71905115036952, 37.157492233333599 ], [ -2.656675435654, 37.140560622454302 ], [ -2.54823716564414, 37.074949474562999 ], [ -2.53088141162269, 37.05007630643739 ], [ -2.51999745058977, 36.964901689431798 ] ] } },
{ "type": "Feature", "properties": { "clase": "Via principal", "certeza": "Hipotética", "longitud_km": 29.883341419628614 }, "geometry": { "type": "LineString", "coordinates": [ [ -2.51999745058977, 36.964901689431798 ], [ -2.55061938189496, 36.976358864230903 ], [ -2.588626173606349, 37.007062576065394 ], [ -2.61829976694082, 37.047970846588498 ], [ -2.6482859641127, 37.112660879148102 ], [ -2.69836514845207, 37.140631646458203 ], [ -2.73698064129493, 37.152165120188108 ] ] } },
{ "type": "Feature", "properties": { "clase": "Via principal", "certeza": "Hipotética", "longitud_km": 17.517933959769326 }, "geometry": { "type": "LineString", "coordinates": [ [ -2.51999745058977, 36.964901689431798 ], [ -2.47278186091589, 36.938862114904097 ], [ -2.446283422241951, 36.901758724613309 ], [ -2.44037549726572, 36.866024388190802 ], [ -2.46444241026456, 36.840604661138798 ] ] } },
{ "type": "Feature", "properties": { "clase": "Via principal", "certeza": "Hipotética", "longitud_km": 70.436916186822614 }, "geometry": { "type": "MultiLineString", "coordinates": [ [ [ -4.41009226867271, 38.661381926773501 ], [ -4.38675484607504, 38.703625979284801 ], [ -4.348305293664435, 38.729507331950408 ] ], [ [ -4.288817106716602, 38.753962152746986 ], [ -4.19643663001939, 38.803106465924905 ], [ -4.12834687281709, 38.810447013725295 ], [ -4.11202515245121, 38.855817732013598 ], [ -4.08444176181476, 38.869733008123703 ], [ -3.9124963184463, 38.871668908522103 ], [ -3.895825200147291, 38.863329368980203 ], [ -3.840913080477681, 38.799036580507106 ], [ -3.82119481924277, 38.795206263215903 ], [ -3.776282556669781, 38.804568581570102 ] ] ] } },
{ "type": "Feature", "properties": { "clase": "Via principal", "certeza": "Hipotética", "longitud_km": 77.533849970812952 }, "geometry": { "type": "LineString", "coordinates": [ [ -3.776282556669781, 38.804568581570102 ], [ -3.704312191526081, 38.800025040187201 ], [ -3.66989516650472, 38.790283976097101 ], [ -3.603502020548591, 38.748897332248603 ], [ -3.56114779788368, 38.7355088481603 ], [ -3.51946943080765, 38.703540967279402 ], [ -3.40448146680618, 38.691033202034298 ], [ -3.302969098042431, 38.650887895509499 ], [ -3.05131076579201, 38.6313998858679 ], [ -2.95267544845669, 38.597647912755491 ] ] } },
{ "type": "Feature", "properties": { "clase": "Via principal", "certeza": "Hipotética", "longitud_km": 90.720585389253486 }, "geometry": { "type": "LineString", "coordinates": [ [ -1.98327903340842, 37.712425555845599 ], [ -1.93559429498415, 37.733677839421702 ], [ -1.86144969693411, 37.741758248350202 ], [ -1.7392945073703, 37.690595099883602 ], [ -1.56744947498937, 37.683590378888297 ], [ -1.48633702167454, 37.694266839056198 ], [ -1.30481427165112, 37.683995357203003 ], [ -1.05724708280028, 37.63046014215 ], [ -0.997459295840669, 37.606053787328896 ] ] } },
{ "type": "Feature", "properties": { "clase": "Via principal", "certeza": "Hipotética", "longitud_km": 171.59771699972197 }, "geometry": { "type": "LineString", "coordinates": [ [ -0.997459295840669, 37.606053787328896 ], [ -1.08650131650897, 37.616148042140999 ], [ -1.12867574226805, 37.605256430961802 ], [ -1.17356150813342, 37.576067356050707 ], [ -1.22899133229118, 37.586182474122502 ], [ -1.3646556826433, 37.554793803582797 ], [ -1.4220883079135, 37.513418185802301 ], [ -1.46849181428233, 37.490949335444398 ], [ -1.51049396652612, 37.440718898736101 ], [ -1.64437547365299, 37.385800017037006 ], [ -1.76330341435463, 37.299068834202806 ], [ -1.77660933669982, 37.278529197558598 ], [ -1.77394262938842, 37.262603512494699 ], [ -1.819257039866329, 37.224300182611799 ], [ -1.848736850424361, 37.161290010833604 ], [ -1.93264190724271, 37.158591851300208 ], [ -2.04085603770772, 37.110953165886897 ], [ -2.066128383816661, 37.075222477233304 ], [ -2.07148966328126, 37.000135344892698 ], [ -2.0849665044823, 36.978275562756203 ], [ -2.22915528028084, 36.874905193622205 ], [ -2.279100552760799, 36.856483990501097 ], [ -2.46444241026456, 36.840604661138798 ] ] } },
{ "type": "Feature", "properties": { "clase": "Via principal", "certeza": "Hipotética", "longitud_km": 80.292203759729048 }, "geometry": { "type": "LineString", "coordinates": [ [ -0.997459295840669, 37.606053787328896 ], [ -0.9051544566182, 37.7324687300165 ], [ -0.772456300215106, 37.857688347691301 ], [ -0.765577252399269, 37.886214416411605 ], [ -0.778575561048458, 37.962745443924192 ], [ -0.690031746036708, 38.131720634958697 ], [ -0.696724304497877, 38.252626062061303 ] ] } },
{ "type": "Feature", "properties": { "clase": "Via principal", "certeza": "Hipotética", "longitud_km": 62.74561558665394 }, "geometry": { "type": "LineString", "coordinates": [ [ -0.696724304497877, 38.252626062061303 ], [ -0.714135884322643, 38.292123063622 ], [ -0.766291214522452, 38.299176872649397 ], [ -0.78062832016882, 38.311345949680401 ], [ -0.7789214465688, 38.379669790790601 ], [ -0.795618222548969, 38.454025696463198 ], [ -0.847010352168256, 38.537208014271094 ], [ -0.900862325055309, 38.566117861298096 ], [ -0.96186919861899, 38.633303027590408 ], [ -0.989521914940846, 38.722840638606591 ] ] } },
{ "type": "Feature", "properties": { "clase": "Via principal", "certeza": "Hipotética", "longitud_km": 73.620125552784884 }, "geometry": { "type": "LineString", "coordinates": [ [ -0.989521914940846, 38.722840638606591 ], [ -0.886286076202237, 38.809804004832202 ], [ -0.744689612836502, 38.8692507565261 ], [ -0.591325283029196, 38.955410965405697 ], [ -0.553814807817319, 38.994506331833598 ], [ -0.496400886369648, 39.020703493410807 ], [ -0.460897215163151, 39.088282825495703 ], [ -0.439492732596623, 39.183029082255899 ] ] } },
{ "type": "Feature", "properties": { "clase": "Via principal", "certeza": "Hipotética", "longitud_km": 78.560173350461042 }, "geometry": { "type": "LineString", "coordinates": [ [ -1.73548583292364, 38.957224776164203 ], [ -1.6675037370115, 38.916800339052202 ], [ -1.53158692682684, 38.8678576706142 ], [ -1.3851570538204, 38.854748213021402 ], [ -1.36579334864499, 38.8425107146088 ], [ -1.35151143818464, 38.796914626397204 ], [ -1.32995585808903, 38.778355113125706 ], [ -1.27023427696584, 38.765258285778103 ], [ -1.11415505421532, 38.680215035679197 ], [ -1.07777181286971, 38.6735938657989 ], [ -1.04686261381141, 38.678299839399102 ], [ -0.989521914940846, 38.722840638606591 ] ] } },
{ "type": "Feature", "properties": { "clase": "Via principal", "certeza": "Confirmada", "longitud_km": 93.251505216283078 }, "geometry": { "type": "LineString", "coordinates": [ [ -7.571236535434509, 43.011329867256698 ], [ -7.47209193891012, 42.97818367078299 ], [ -7.292509421441361, 42.8947956815881 ], [ -7.212027813628032, 42.890024218426198 ], [ -7.05673388642079, 42.896544865839601 ], [ -7.03390092894057, 42.8907279549721 ], [ -6.98048561992661, 42.829358910574499 ], [ -6.924078643437101, 42.740406454418 ], [ -6.86898266917157, 42.691165127008396 ], [ -6.82647602396253, 42.670253988935897 ], [ -6.779412744543391, 42.667487640026906 ], [ -6.69557975956027, 42.635146078910196 ], [ -6.6518445729788, 42.627842864803 ] ] } },
{ "type": "Feature", "properties": { "clase": "Via principal", "certeza": "Confirmada", "longitud_km": 196.81596671392595 }, "geometry": { "type": "LineString", "coordinates": [ [ -8.157128458851819, 41.788765436104988 ], [ -8.12384147336258, 41.826301880247101 ], [ -8.10974700986101, 41.883169237560203 ], [ -8.083831978455089, 41.918184849497301 ], [ -8.048647034901281, 41.950567696399403 ], [ -7.99379725561744, 41.984410539178697 ], [ -7.749827868886799, 42.109735802961701 ], [ -7.73606080447537, 42.140062021730103 ], [ -7.70283472543348, 42.180393856228598 ], [ -7.682382421135501, 42.229698109236701 ], [ -7.63321273700387, 42.276305198787107 ], [ -7.56676779239181, 42.299698697278899 ], [ -7.36559537559028, 42.3467066241666 ], [ -7.26353747702246, 42.346825136019298 ], [ -7.222798406373799, 42.327263262940498 ], [ -7.20633049507691, 42.330549581247901 ], [ -7.08431288160054, 42.377821580788506 ], [ -7.008169361363459, 42.435661127037903 ], [ -6.86700366443097, 42.466635547122195 ], [ -6.807146663177041, 42.527126110773303 ], [ -6.72516644987416, 42.556209572778499 ], [ -6.694026571535709, 42.5752364853589 ], [ -6.6518445729788, 42.627842864803 ] ] } },
{ "type": "Feature", "properties": { "clase": "Via principal", "certeza": "Confirmada", "longitud_km": 270.75560724062569 }, "geometry": { "type": "LineString", "coordinates": [ [ -6.564465398812324, 41.838273157946261 ], [ -6.54407994780389, 41.841709310463401 ], [ -6.491892024030589, 41.883045411306895 ], [ -6.39751790117812, 41.886658511031399 ], [ -6.35866502582647, 41.895585839255297 ], [ -6.197521408727889, 41.976720092196899 ], [ -5.99970632223156, 41.986937356520009 ], [ -5.963361035605039, 41.996356808145997 ], [ -5.93895939146667, 42.012890682507106 ], [ -5.88025113693346, 42.120988633385508 ], [ -5.87070380975447, 42.264885042758301 ], [ -5.85607692376717, 42.330589708781304 ], [ -5.904662048990611, 42.394925355434502 ], [ -5.91936214677524, 42.428696221390901 ] ] } },
{ "type": "Feature", "properties": { "clase": "Via principal", "certeza": "Confirmada", "longitud_km": 281.7185014223229 }, "geometry": { "type": "LineString", "coordinates": [ [ -6.40617790126552, 39.462999665934298 ], [ -6.448008866955519, 39.515831772404901 ], [ -6.46666314470331, 39.564720417547001 ], [ -6.514177673042481, 39.648072637419098 ], [ -6.52192512493842, 39.684107622010103 ], [ -6.51125842864345, 39.704551051286799 ], [ -6.444534466405859, 39.753197240347298 ], [ -6.43856557097463, 39.791099147240701 ], [ -6.42114506728583, 39.830446070741601 ], [ -6.341466626998401, 39.914080881430401 ], [ -6.26326754849053, 40.021992138666903 ], [ -6.12250392580113, 40.150568900332701 ], [ -6.110707773207891, 40.176038729990601 ], [ -6.090902140930121, 40.193340398038004 ], [ -6.0235267572794, 40.222171187943601 ], [ -5.886239709062641, 40.234965798708998 ], [ -5.81834056627878, 40.259134853312304 ], [ -5.810922382867079, 40.284634454721903 ], [ -5.786436775894069, 40.308086572204495 ], [ -5.62146497743243, 40.381173168954803 ], [ -5.57729924450496, 40.452205734764199 ], [ -5.54535992934401, 40.474674185522602 ], [ -5.52480988115661, 40.590757846772604 ], [ -5.47283777852864, 40.747027881563298 ], [ -5.48491883181425, 40.789019908577899 ], [ -5.51936351865819, 40.825476849342898 ], [ -5.535701158069199, 40.855494247847801 ], [ -5.537966529552729, 40.8765816757927 ], [ -5.5299675718351, 40.913571402524902 ], [ -5.470919268135911, 41.048193952976597 ], [ -5.514170042692041, 41.129487047956303 ], [ -5.560106750303241, 41.315634501594396 ], [ -5.590866365493691, 41.384505177618905 ], [ -5.593464940082399, 41.413231900709903 ], [ -5.5787224633759, 41.482017221301803 ], [ -5.58584464740987, 41.569912109717698 ] ] } },
{ "type": "Feature", "properties": { "clase": "Via principal", "certeza": "Hipotética", "longitud_km": 41.984051182952768 }, "geometry": { "type": "LineString", "coordinates": [ [ -6.65504652079098, 37.691723582491804 ], [ -6.69559441557415, 37.607526693461303 ], [ -6.75660440449523, 37.592385619376302 ], [ -6.784431501780039, 37.545296516474103 ], [ -6.891860793045921, 37.472944845971 ], [ -6.930481122418309, 37.410162278700803 ] ] } },
{ "type": "Feature", "properties": { "clase": "Via principal", "certeza": "Hipotética", "longitud_km": 62.591236104667189 }, "geometry": { "type": "LineString", "coordinates": [ [ -6.930481122418309, 37.410162278700803 ], [ -6.905459187983, 37.346359097662507 ], [ -6.90639079662818, 37.294032474906103 ], [ -6.84636687671634, 37.342743815766809 ], [ -6.72808739837728, 37.363770397264098 ], [ -6.62440270203391, 37.407712806798294 ], [ -6.51544503600824, 37.4089400401948 ], [ -6.40199654006198, 37.446221283948503 ] ] } },
{ "type": "Feature", "properties": { "clase": "Via principal", "certeza": "Hipotética", "longitud_km": 43.442990965352344 }, "geometry": { "type": "MultiLineString", "coordinates": [ [ [ -4.9002369550271, 38.6953881474413 ], [ -4.83409508133069, 38.680449155912903 ], [ -4.630821072630098, 38.6959129132347 ] ], [ [ -4.411729171546417, 38.66121200857453 ], [ -4.41009226867271, 38.661381926773501 ] ] ] } },
{ "type": "Feature", "properties": { "clase": "Via principal", "certeza": "Confirmada", "longitud_km": 142.30338457650728 }, "geometry": { "type": "LineString", "coordinates": [ [ -4.34495478961736, 41.2746542971379 ], [ -4.25928728043238, 41.203711387157298 ], [ -4.185857826688469, 41.107827620462103 ], [ -4.07527888303467, 41.0737273665044 ], [ -3.957016151987431, 41.016751484092097 ], [ -3.914856577176631, 41.006495178478197 ], [ -3.863110826644061, 40.956797552423097 ], [ -3.85206588302065, 40.928736438762897 ], [ -3.850540858976859, 40.893113912863789 ], [ -3.859572734642461, 40.796560403453398 ], [ -3.8300916646464, 40.717222119873 ], [ -3.83757423121284, 40.592865376130298 ], [ -3.82917989888754, 40.550988547341802 ], [ -3.80024819450182, 40.495244963053601 ], [ -3.75032075088532, 40.434951671729706 ], [ -3.722846080652751, 40.335292197518598 ], [ -3.63876926954536, 40.218849582340503 ] ] } },
{ "type": "Feature", "properties": { "clase": "Via principal", "certeza": "Confirmada", "longitud_km": 31.25350941415277 }, "geometry": { "type": "LineString", "coordinates": [ [ -6.40199654006198, 37.446221283948503 ], [ -6.31764927227367, 37.427512536496501 ], [ -6.238639844209249, 37.422675716091497 ], [ -6.1592617700101, 37.402118982065197 ], [ -6.12249203659835, 37.407942467591297 ], [ -6.086379801702619, 37.450545639646897 ] ] } },
{ "type": "Feature", "properties": { "clase": "Via principal", "certeza": "Confirmada", "longitud_km": 26.193521275451776 }, "geometry": { "type": "LineString", "coordinates": [ [ -5.968627857217511, 37.414134990313997 ], [ -5.881914981231341, 37.4268592968224 ], [ -5.77984209696798, 37.466087237561801 ], [ -5.6875527752437, 37.454320229260297 ] ] } },
{ "type": "Feature", "properties": { "clase": "Via principal", "certeza": "Hipotética", "longitud_km": 28.373561790080021 }, "geometry": { "type": "LineString", "coordinates": [ [ -5.07715194771761, 37.267232147981197 ], [ -5.0716698340675, 37.307792942256697 ], [ -5.091617154021771, 37.349795838230605 ], [ -5.12691815631701, 37.39181109486519 ], [ -5.133037913116304, 37.417501374876942 ] ] } },
{ "type": "Feature", "properties": { "clase": "Via principal", "certeza": "Hipotética", "longitud_km": 41.292829268409314 }, "geometry": { "type": "LineString", "coordinates": [ [ -4.942118143326732, 37.436503688649154 ], [ -4.881188274648769, 37.350277260698199 ], [ -4.808163345752041, 37.3054309916322 ] ] } },
{ "type": "Feature", "properties": { "clase": "Via principal", "certeza": "Hipotética", "longitud_km": 62.470710201448107 }, "geometry": { "type": "LineString", "coordinates": [ [ -5.91615067232948, 36.188020834610597 ], [ -5.867215269722259, 36.163634110641198 ], [ -5.8045676583264, 36.098134581584397 ], [ -5.771963697653079, 36.090321573553702 ], [ -5.72126544292891, 36.062760754598003 ], [ -5.68984060191437, 36.066066940075302 ], [ -5.66155807674682, 36.058917084572201 ], [ -5.60737628740317, 36.014543380928799 ], [ -5.516833972412581, 36.048698015787899 ], [ -5.44893471554265, 36.084337038167099 ], [ -5.450570907899479, 36.147125261763996 ], [ -5.43529665729085, 36.175477334385299 ] ] } },
{ "type": "Feature", "properties": { "clase": "Via principal", "certeza": "Hipotética", "longitud_km": 28.164163574427757 }, "geometry": { "type": "LineString", "coordinates": [ [ -4.82601334116471, 37.848063233021406 ], [ -4.814594047104489, 37.8941924805439 ], [ -4.8208612389056, 37.980443188012401 ], [ -4.8407563577587, 38.000885890908997 ], [ -4.933861152131571, 38.059266136941503 ] ] } },
{ "type": "Feature", "properties": { "clase": "Via principal", "certeza": "Hipotética", "longitud_km": 43.24887280081181 }, "geometry": { "type": "LineString", "coordinates": [ [ -4.933861152131571, 38.059266136941503 ], [ -4.98511173241488, 38.076678451298697 ], [ -5.08405703050699, 38.128147956868801 ], [ -5.16026694343009, 38.199518220873401 ], [ -5.22854860054005, 38.2157718043321 ], [ -5.24936462371341, 38.231186985940298 ], [ -5.341791043621379, 38.2624217618663 ] ] } },
{ "type": "Feature", "properties": { "clase": "Via principal", "certeza": "Hipotética", "longitud_km": 179.48045151339232 }, "geometry": { "type": "LineString", "coordinates": [ [ -4.41113391734694, 36.725038211913095 ], [ -4.24202137321073, 36.720160105997792 ], [ -4.15415291701946, 36.729790294473098 ], [ -4.081592259021121, 36.762274040843607 ], [ -3.99116924119856, 36.754043386967702 ], [ -3.85903813553877, 36.762841221295602 ], [ -3.69493808019514, 36.73723069395971 ], [ -3.65726823756366, 36.757129472602294 ], [ -3.60851972675634, 36.758130992340199 ], [ -3.54107241589913, 36.732861554985902 ], [ -3.46065797332303, 36.726343387177401 ], [ -3.419322096135569, 36.713570297721098 ], [ -3.38513719668193, 36.723277719066402 ], [ -3.347315395036981, 36.746815881300599 ], [ -3.28403370869614, 36.758866634640299 ], [ -2.88935226174638, 36.760670783896799 ], [ -2.80465273399242, 36.7759879952239 ], [ -2.65558681137862, 36.817234464140299 ], [ -2.46444241026456, 36.840604661138798 ] ] } },
{ "type": "Feature", "properties": { "clase": "Via principal", "certeza": "Hipotética", "longitud_km": 94.723209581591576 }, "geometry": { "type": "LineString", "coordinates": [ [ -3.444718174395121, 39.274241777258801 ], [ -3.52491475305697, 39.393742412400606 ], [ -3.620885343866091, 39.476717275338899 ], [ -3.66475692525043, 39.547243121669098 ], [ -3.69353345465396, 39.575949719769611 ], [ -3.737797424645981, 39.596426688294898 ], [ -3.818079529211091, 39.664941808519998 ], [ -3.897830094334381, 39.696536725345098 ], [ -3.923463877597881, 39.7170626805041 ], [ -3.96580609158405, 39.775490916978598 ], [ -4.031621530980971, 39.902643989829897 ], [ -4.08907072747323, 39.937809836163702 ] ] } },
{ "type": "Feature", "properties": { "clase": "Via principal", "certeza": "Hipotética", "longitud_km": 0.13027413959999107 }, "geometry": { "type": "LineString", "coordinates": [ [ -6.930481122418309, 37.410162278700803 ], [ -6.93177610049421, 37.410723146732998 ] ] } },
{ "type": "Feature", "properties": { "clase": "Via secundaria", "certeza": "Confirmada", "longitud_km": 9.7459118076141671 }, "geometry": { "type": "LineString", "coordinates": [ [ 2.41439116263222, 41.5315377803473 ], [ 2.31593440522258, 41.578786504090999 ] ] } },
{ "type": "Feature", "properties": { "clase": "Via secundaria", "certeza": "Hipotética", "longitud_km": 15.513205198188196 }, "geometry": { "type": "LineString", "coordinates": [ [ 2.31593440522258, 41.578786504090999 ], [ 2.24797774600603, 41.606745241182402 ], [ 2.14273898757732, 41.626220449648102 ] ] } },
{ "type": "Feature", "properties": { "clase": "Via secundaria", "certeza": "Hipotética", "longitud_km": 10.448076343596002 }, "geometry": { "type": "LineString", "coordinates": [ [ 1.9327658199547, 41.480865647992403 ], [ 1.94798698731654, 41.524621841141098 ], [ 1.98976796715086, 41.561218240893702 ] ] } },
{ "type": "Feature", "properties": { "clase": "Via secundaria", "certeza": "Hipotética", "longitud_km": 6.4596659433932331 }, "geometry": { "type": "LineString", "coordinates": [ [ 1.98976796715086, 41.561218240893702 ], [ 2.02606548945541, 41.50991302819741 ] ] } },
{ "type": "Feature", "properties": { "clase": "Via secundaria", "certeza": "Hipotética", "longitud_km": 14.692608375285166 }, "geometry": { "type": "LineString", "coordinates": [ [ 1.98976796715086, 41.561218240893702 ], [ 2.05448808712857, 41.595675668260895 ], [ 2.14273898757732, 41.626220449648102 ] ] } },
{ "type": "Feature", "properties": { "clase": "Via secundaria", "certeza": "Hipotética", "longitud_km": 7.4666477955131167 }, "geometry": { "type": "LineString", "coordinates": [ [ 2.14273898757732, 41.626220449648102 ], [ 2.15794292255704, 41.601011161421098 ], [ 2.16386957111878, 41.562038325752802 ] ] } },
{ "type": "Feature", "properties": { "clase": "Via secundaria", "certeza": "Hipotética", "longitud_km": 19.755591716252106 }, "geometry": { "type": "LineString", "coordinates": [ [ 2.133253689966999, 41.352241473591597 ], [ 2.06993815510627, 41.428201406260399 ], [ 2.02606548945541, 41.50991302819741 ] ] } },
{ "type": "Feature", "properties": { "clase": "Via secundaria", "certeza": "Hipotética", "longitud_km": 55.82382655498435 }, "geometry": { "type": "LineString", "coordinates": [ [ -5.40487433972663, 37.679720708344497 ], [ -5.29486514355862, 37.718398104988601 ], [ -5.24914767428406, 37.751586084665405 ], [ -5.14416454853745, 37.779534077440999 ], [ -5.0830383760091, 37.775605614380908 ], [ -5.01182599762407, 37.803099195967398 ], [ -4.97620372724048, 37.801641604503999 ], [ -4.82601334116471, 37.848063233021406 ] ] } },
{ "type": "Feature", "properties": { "clase": "Via secundaria", "certeza": "Hipotética", "longitud_km": 48.621675332131041 }, "geometry": { "type": "LineString", "coordinates": [ [ -4.83616560373749, 37.8269763591029 ], [ -4.96416896953136, 37.782142133070003 ], [ -5.0917543007145, 37.758039484967199 ], [ -5.140836174527129, 37.757768163136397 ], [ -5.17441028067301, 37.734759282531193 ], [ -5.34040722845205, 37.667101144973103 ] ] } },
{ "type": "Feature", "properties": { "clase": "Via secundaria", "certeza": "Hipotética", "longitud_km": 5.8582215643802789 }, "geometry": { "type": "LineString", "coordinates": [ [ -5.34040722845205, 37.667101144973103 ], [ -5.40487433972663, 37.679720708344497 ] ] } },
{ "type": "Feature", "properties": { "clase": "Via secundaria", "certeza": "Hipotética", "longitud_km": 26.663915205147248 }, "geometry": { "type": "LineString", "coordinates": [ [ -5.34040722845205, 37.667101144973103 ], [ -5.202230603762281, 37.605311982203993 ], [ -5.16179622548829, 37.576219299148597 ], [ -5.149881823303354, 37.556599136093304 ] ] } },
{ "type": "Feature", "properties": { "clase": "Via secundaria", "certeza": "Hipotética", "longitud_km": 4.4131881345529536 }, "geometry": { "type": "LineString", "coordinates": [ [ -5.387868496576349, 37.6545847456429 ], [ -5.34040722845205, 37.667101144973103 ] ] } },
{ "type": "Feature", "properties": { "clase": "Via secundaria", "certeza": "Hipotética", "longitud_km": 3.1705727567638182 }, "geometry": { "type": "LineString", "coordinates": [ [ -5.40487433972663, 37.679720708344497 ], [ -5.387868496576349, 37.6545847456429 ] ] } },
{ "type": "Feature", "properties": { "clase": "Via secundaria", "certeza": "Hipotética", "longitud_km": 17.831826851650511 }, "geometry": { "type": "LineString", "coordinates": [ [ -5.387868496576349, 37.6545847456429 ], [ -5.379601152794569, 37.494721123332297 ] ] } },
{ "type": "Feature", "properties": { "clase": "Via secundaria", "certeza": "Hipotética", "longitud_km": 81.436699789416636 }, "geometry": { "type": "LineString", "coordinates": [ [ -5.40487433972663, 37.679720708344497 ], [ -5.417025905372159, 37.716668240114402 ], [ -5.44396954101606, 37.7492499667039 ], [ -5.49412573522978, 37.760077880652503 ], [ -5.537711664930179, 37.780084545776397 ], [ -5.72564533181025, 37.929966383436906 ], [ -5.828380532254501, 37.984439870699198 ], [ -5.94733849644958, 38.081580737212199 ], [ -5.958221027364591, 38.098218568093401 ], [ -5.9651005045751, 38.138392611955602 ], [ -6.009269506471911, 38.198788590484298 ] ] } },
{ "type": "Feature", "properties": { "clase": "Via secundaria", "certeza": "Hipotética", "longitud_km": 60.144296754746598 }, "geometry": { "type": "LineString", "coordinates": [ [ -5.341791043621379, 38.2624217618663 ], [ -5.38975663313269, 38.274938012864197 ], [ -5.47761266652187, 38.2475253901234 ], [ -5.553792861378751, 38.237177340853009 ], [ -5.76610754258664, 38.246739694338409 ], [ -5.923308075712479, 38.208855044285691 ], [ -6.009269506471911, 38.198788590484298 ] ] } },
{ "type": "Feature", "properties": { "clase": "Via secundaria", "certeza": "Hipotética", "longitud_km": 7.7452033177659372 }, "geometry": { "type": "LineString", "coordinates": [ [ -5.968627857217511, 37.414134990313997 ], [ -6.014641792095381, 37.438009005175097 ], [ -6.03018588403892, 37.458535704182502 ] ] } },
{ "type": "Feature", "properties": { "clase": "Via secundaria", "certeza": "Hipotética", "longitud_km": 5.826136740988284 }, "geometry": { "type": "LineString", "coordinates": [ [ -6.03018588403892, 37.458535704182502 ], [ -6.014611985095931, 37.5092779265632 ] ] } },
{ "type": "Feature", "properties": { "clase": "Via secundaria", "certeza": "Hipotética", "longitud_km": 18.950743929875152 }, "geometry": { "type": "LineString", "coordinates": [ [ -6.03018588403892, 37.458535704182502 ], [ -5.9898247633764, 37.4722695665128 ], [ -5.901575449352461, 37.543284539383102 ], [ -5.86112728014226, 37.558576436587892 ] ] } },
{ "type": "Feature", "properties": { "clase": "Via secundaria", "certeza": "Hipotética", "longitud_km": 19.417108874949978 }, "geometry": { "type": "LineString", "coordinates": [ [ -5.86112728014226, 37.558576436587892 ], [ -5.79977915367011, 37.509893263646198 ], [ -5.6875527752437, 37.454320229260297 ] ] } },
{ "type": "Feature", "properties": { "clase": "Via secundaria", "certeza": "Hipotética", "longitud_km": 3.7186918152159221 }, "geometry": { "type": "LineString", "coordinates": [ [ -5.86112728014226, 37.558576436587892 ], [ -5.87452257677338, 37.590122801013102 ] ] } },
{ "type": "Feature", "properties": { "clase": "Via secundaria", "certeza": "Hipotética", "longitud_km": 44.481537343008824 }, "geometry": { "type": "LineString", "coordinates": [ [ -5.86112728014226, 37.558576436587892 ], [ -5.774988815694849, 37.578658408445598 ], [ -5.690142098981601, 37.563964250648702 ], [ -5.57168973806947, 37.610384516032298 ], [ -5.490005107325979, 37.62249917956089 ], [ -5.387868496576349, 37.6545847456429 ] ] } },
{ "type": "Feature", "properties": { "clase": "Via secundaria", "certeza": "Hipotética", "longitud_km": 44.121726565324202 }, "geometry": { "type": "LineString", "coordinates": [ [ -5.40487433972663, 37.679720708344497 ], [ -5.541995505941331, 37.650294253019197 ], [ -5.64759705079417, 37.60099693619 ], [ -5.749813570281569, 37.615710114199899 ], [ -5.87452257677338, 37.590122801013102 ] ] } },
{ "type": "Feature", "properties": { "clase": "Via secundaria", "certeza": "Hipotética", "longitud_km": 15.30247539284189 }, "geometry": { "type": "LineString", "coordinates": [ [ -5.87452257677338, 37.590122801013102 ], [ -6.014611985095931, 37.5092779265632 ] ] } },
{ "type": "Feature", "properties": { "clase": "Via secundaria", "certeza": "Hipotética", "longitud_km": 159.65888437389279 }, "geometry": { "type": "LineString", "coordinates": [ [ -7.144669815690595, 38.8377074679481 ], [ -7.10749239833756, 38.843408486442698 ], [ -6.974710315930731, 38.834967026940809 ], [ -6.620054041286811, 38.835644854470402 ], [ -6.453131526032861, 38.859731467405197 ], [ -6.37801759368901, 38.905792358646202 ] ] } },
{ "type": "Feature", "properties": { "clase": "Via secundaria", "certeza": "Hipotética", "longitud_km": 37.457310003291575 }, "geometry": { "type": "LineString", "coordinates": [ [ -6.408382200784439, 38.303990112404897 ], [ -6.13175339319144, 38.255699263854993 ], [ -6.03773455133889, 38.222993707133099 ], [ -6.009269506471911, 38.198788590484298 ] ] } },
{ "type": "Feature", "properties": { "clase": "Via secundaria", "certeza": "Hipotética", "longitud_km": 39.430111248796479 }, "geometry": { "type": "LineString", "coordinates": [ [ -6.65504652079098, 37.691723582491804 ], [ -6.61841477938666, 37.670398021083898 ], [ -6.582511792663331, 37.598135129455109 ], [ -6.56705701931015, 37.5905138947412 ], [ -6.51676600144703, 37.58818275343571 ], [ -6.479358373453709, 37.549372819010401 ], [ -6.4381367682586, 37.538568778703194 ], [ -6.418015443735489, 37.5238465253451 ], [ -6.40228141200827, 37.489265083193203 ], [ -6.40199654006198, 37.446221283948503 ] ] } },
{ "type": "Feature", "properties": { "clase": "Via secundaria", "certeza": "Hipotética", "longitud_km": 64.277959443632312 }, "geometry": { "type": "LineString", "coordinates": [ [ -6.086379801702619, 37.450545639646897 ], [ -6.203482975703, 37.514119688420301 ], [ -6.21924773340622, 37.5487897525405 ], [ -6.21347172063956, 37.601269024144806 ], [ -6.280100644713361, 37.650420493831405 ], [ -6.383136610996211, 37.6763423761141 ], [ -6.58906262032884, 37.681665638304402 ], [ -6.65504652079098, 37.691723582491804 ] ] } },
{ "type": "Feature", "properties": { "clase": "Via secundaria", "certeza": "Hipotética", "longitud_km": 90.820003866974147 }, "geometry": { "type": "LineString", "coordinates": [ [ -4.933861152131571, 38.059266136941503 ], [ -4.961891637878179, 38.116429415932501 ], [ -5.02224858123212, 38.19661053107351 ], [ -5.03535995004633, 38.284872881851307 ], [ -5.026590074321581, 38.357498742300997 ], [ -5.168154294456801, 38.458157822417597 ], [ -5.183909650392219, 38.511741535501997 ], [ -5.17278901562128, 38.529062202593096 ], [ -5.10934738065086, 38.577360501066501 ], [ -5.00217869064892, 38.622683214464601 ], [ -4.9002369550271, 38.6953881474413 ] ] } },
{ "type": "Feature", "properties": { "clase": "Via secundaria", "certeza": "Hipotética", "longitud_km": 81.006433445282013 }, "geometry": { "type": "LineString", "coordinates": [ [ -5.298671748286891, 42.473579103604202 ], [ -5.33066192426255, 42.562799166924002 ], [ -5.44621434018126, 42.601757004576399 ], [ -5.52933882389978, 42.641700575004499 ], [ -5.546389683425571, 42.659050219822298 ], [ -5.61137562567564, 42.841666058941001 ], [ -5.656863594259741, 42.905279908369806 ], [ -5.635783951483081, 42.929572833792697 ], [ -5.66490950332396, 42.981587513853 ], [ -5.64426839111957, 43.012401992373292 ], [ -5.665292401230679, 43.0738073993464 ] ] } },
{ "type": "Feature", "properties": { "clase": "Via secundaria", "certeza": "Hipotética", "longitud_km": 23.008354010405146 }, "geometry": { "type": "LineString", "coordinates": [ [ -5.665292401230679, 43.0738073993464 ], [ -5.705553082159601, 43.076419191956504 ], [ -5.78698662749295, 43.123948771497098 ], [ -5.797235319719891, 43.177242374607403 ], [ -5.76307488857795, 43.214702344010902 ] ] } },
{ "type": "Feature", "properties": { "clase": "Via secundaria", "certeza": "Confirmada", "longitud_km": 18.586722583745317 }, "geometry": { "type": "LineString", "coordinates": [ [ -5.76307488857795, 43.214702344010902 ], [ -5.753622200710799, 43.196820800785694 ], [ -5.760287968715229, 43.179243225804406 ], [ -5.7198930130075, 43.125369538581602 ], [ -5.67500927014816, 43.096036438886991 ], [ -5.665292401230679, 43.0738073993464 ] ] } },
{ "type": "Feature", "properties": { "clase": "Via secundaria", "certeza": "Confirmada", "longitud_km": 117.57339113621147 }, "geometry": { "type": "LineString", "coordinates": [ [ -4.2458019420671, 42.439040080543393 ], [ -4.234824001085759, 42.533531993882697 ], [ -4.24831777373326, 42.575963993279494 ], [ -4.25715478864404, 42.668277541090902 ], [ -4.21748458921598, 42.779269462688298 ], [ -4.18518831051058, 42.825392871035397 ], [ -4.195761705983509, 42.864290685847401 ], [ -4.19195151248569, 42.881252187127906 ], [ -4.07615275156665, 42.970004111102597 ], [ -4.066461186394071, 42.99109618174689 ], [ -4.09431619074152, 43.062857780138309 ], [ -4.0418290453336, 43.159437356885299 ], [ -4.05396957517586, 43.244826758589198 ], [ -4.06752416286979, 43.276417349168298 ], [ -4.06720217792585, 43.332269528580397 ], [ -4.057659000065191, 43.381802942087603 ], [ -4.03340112589816, 43.427689971103902 ] ] } },
{ "type": "Feature", "properties": { "clase": "Via secundaria", "certeza": "Hipotética", "longitud_km": 191.89776458023709 }, "geometry": { "type": "MultiLineString", "coordinates": [ [ [ -0.696724304497877, 38.252626062061303 ], [ -0.652537015596824, 38.213219503590103 ], [ -0.566300714733496, 38.189051498381701 ], [ -0.541578703517071, 38.194875152663201 ], [ -0.53548260574331, 38.203421083047502 ], [ -0.533900486576696, 38.282560749048798 ], [ -0.524988153319243, 38.305348132116897 ], [ -0.485355383994111, 38.346198038374098 ], [ -0.422706606585053, 38.370668304274808 ], [ -0.412452457991073, 38.413395482686099 ], [ -0.399099251922594, 38.4327623916679 ], [ -0.287426244694359, 38.492329249701498 ], [ -0.132649063472818, 38.543821715668301 ], [ -0.068094901853948, 38.581760119025503 ], [ -0.041836980809135, 38.606611520462103 ], [ 0.057035833121013, 38.651083317949997 ], [ 0.169467960781753, 38.717464529525799 ], [ 0.17812262038481, 38.737996129598301 ], [ 0.178079434775847, 38.768177534389899 ], [ 0.151773435897011, 38.813766343035105 ], [ 0.092539372275169, 38.839712475442397 ], [ 0.005603234398185, 38.849068415267503 ], [ -0.04254584409476, 38.867129994486703 ], [ -0.12781569245966, 38.93738470228071 ], [ -0.172829558832361, 38.998880086705064 ] ], [ [ -0.174284528674801, 39.001583092571337 ], [ -0.242143569000477, 39.135744767019396 ], [ -0.270742780848411, 39.162210954123999 ], [ -0.296877856379817, 39.157510521832393 ], [ -0.334590580989706, 39.181171046355594 ], [ -0.439492732596623, 39.183029082255899 ] ] ] } },
{ "type": "Feature", "properties": { "clase": "Via secundaria", "certeza": "Hipotética", "longitud_km": 171.57327087762386 }, "geometry": { "type": "MultiLineString", "coordinates": [ [ [ -0.997459295840669, 37.606053787328896 ], [ -0.99890839517495, 37.626677884163904 ], [ -1.06393449211822, 37.731797868933704 ], [ -1.05136251132648, 37.773477437446104 ], [ -1.082312087310792, 37.820432741027069 ] ], [ [ -1.212835669424527, 37.974679411794412 ], [ -1.22251402005356, 38.005988795027797 ], [ -1.21237663268358, 38.050967477136204 ], [ -1.23864733226334, 38.097764625215603 ], [ -1.40774666577499, 38.236480319509106 ], [ -1.42514837131816, 38.271961062762905 ], [ -1.49765819814614, 38.352224387410402 ], [ -1.516674873347519, 38.384242117721591 ], [ -1.55151059054644, 38.410726008526993 ], [ -1.5800567263341, 38.456112337006701 ], [ -1.60524492186051, 38.474267353031195 ], [ -1.6240520955646, 38.541785974355797 ], [ -1.69976728200624, 38.631204682726803 ], [ -1.71111455453683, 38.668507910053798 ], [ -1.70874215417713, 38.750642495717599 ], [ -1.71229409999706, 38.785945742499202 ], [ -1.72526422400419, 38.817019038215193 ], [ -1.73548583292364, 38.957224776164203 ] ] ] } },
{ "type": "Feature", "properties": { "clase": "Via secundaria", "certeza": "Hipotética", "longitud_km": 74.17894326368274 }, "geometry": { "type": "LineString", "coordinates": [ [ -4.603125264483891, 37.349425066480201 ], [ -4.43511880517721, 37.457861640151897 ], [ -4.346697292198159, 37.523312844268609 ], [ -4.302588695716009, 37.568453053283399 ], [ -4.252290282921449, 37.690851754138102 ], [ -4.21582044847402, 37.9011377365428 ] ] } },
{ "type": "Feature", "properties": { "clase": "Via secundaria", "certeza": "Hipotética", "longitud_km": 49.920156083166532 }, "geometry": { "type": "LineString", "coordinates": [ [ -4.21582044847402, 37.9011377365428 ], [ -4.18558948284512, 37.882077329494898 ], [ -4.14231766615181, 37.868154363614408 ], [ -4.037652635643931, 37.8676890422553 ], [ -4.00006554222315, 37.845895393736598 ], [ -3.898290451273089, 37.8326285030384 ], [ -3.81246807073647, 37.791499384530503 ], [ -3.757479760456071, 37.78414317295681 ], [ -3.692543362090519, 37.763079181855296 ] ] } },
{ "type": "Feature", "properties": { "clase": "Via secundaria", "certeza": "Confirmada", "longitud_km": 126.17603240750212 }, "geometry": { "type": "LineString", "coordinates": [ [ -6.40617790126552, 39.462999665934298 ], [ -6.560566681500921, 39.4519570641393 ], [ -6.72916030752507, 39.564622683349299 ], [ -6.884455487393424, 39.680998989304904 ] ] } },
{ "type": "Feature", "properties": { "clase": "Via secundaria", "certeza": "Hipotética", "longitud_km": 22.506210712442726 }, "geometry": { "type": "LineString", "coordinates": [ [ -4.969273258334236, 37.616484330524472 ], [ -4.855561903384659, 37.622813051131097 ], [ -4.76733719331805, 37.598876109357001 ] ] } },
{ "type": "Feature", "properties": { "clase": "Via secundaria", "certeza": "Hipotética", "longitud_km": 119.10818163913949 }, "geometry": { "type": "MultiLineString", "coordinates": [ [ [ -5.41142547731094, 36.195325705610898 ], [ -5.42974410404438, 36.227576032473692 ], [ -5.42021431647132, 36.337558954312897 ], [ -5.43635533802285, 36.393347639861602 ], [ -5.43937771440638, 36.442789919273999 ], [ -5.400980991877931, 36.486957433304198 ], [ -5.38918659638937, 36.5266978425053 ], [ -5.3503104968927, 36.545422704925699 ], [ -5.34146477640848, 36.570198420919297 ], [ -5.30834096786674, 36.588489807236009 ], [ -5.29096625669788, 36.629787786375701 ], [ -5.194793950463261, 36.753374002423826 ] ], [ [ -5.119700757050737, 36.838619088281554 ], [ -5.132275684417, 36.904363061028299 ], [ -5.11926891902773, 36.947577640900597 ], [ -5.06586574086338, 37.080283857007707 ], [ -5.03902116064919, 37.121532937051299 ], [ -5.011602971990149, 37.146366197577201 ] ] ] } },
{ "type": "Feature", "properties": { "clase": "Via secundaria", "certeza": "Hipotética", "longitud_km": 18.818424379423476 }, "geometry": { "type": "LineString", "coordinates": [ [ -4.808163345752041, 37.3054309916322 ], [ -4.603125264483891, 37.349425066480201 ] ] } },
{ "type": "Feature", "properties": { "clase": "Via secundaria", "certeza": "Hipotética", "longitud_km": 24.289025222427156 }, "geometry": { "type": "LineString", "coordinates": [ [ -5.07715194771761, 37.267232147981197 ], [ -4.9635556250082, 37.274511514180098 ], [ -4.808163345752041, 37.3054309916322 ] ] } },
{ "type": "Feature", "properties": { "clase": "Via secundaria", "certeza": "Hipotética", "longitud_km": 187.27783012926136 }, "geometry": { "type": "LineString", "coordinates": [ [ -6.93177610049421, 37.410723146732998 ], [ -6.955269055603541, 37.408735652894102 ], [ -6.98668064556936, 37.347210825357003 ], [ -6.981574886497421, 37.2782304698137 ], [ -7.02640722955287, 37.242779668173604 ], [ -7.09643289032844, 37.250783121688698 ], [ -7.134458736205341, 37.301240432967802 ], [ -7.156282754467431, 37.309396989443599 ], [ -7.25102077945163, 37.255172146369901 ], [ -7.376207778607768, 37.254313794986203 ], [ -7.451275222486236, 37.231250121081899 ] ] } },
{ "type": "Feature", "properties": { "clase": "Via secundaria", "certeza": "Hipotética", "longitud_km": 57.684980410012301 }, "geometry": { "type": "LineString", "coordinates": [ [ -5.43529665729085, 36.175477334385299 ], [ -5.466094768884521, 36.173711077617298 ], [ -5.48915980342341, 36.183036594804598 ], [ -5.537728286457879, 36.242834241496602 ], [ -5.576289571363251, 36.266796833123301 ], [ -5.60780161184244, 36.298208813321601 ], [ -5.643047745040139, 36.307108577666199 ], [ -5.71189309588921, 36.307452160607603 ], [ -5.85332363862531, 36.378791443991503 ], [ -5.89060164601132, 36.411032348453702 ], [ -5.91458335560213, 36.46104644587939 ] ] } },
{ "type": "Feature", "properties": { "clase": "Via secundaria", "certeza": "Hipotética", "longitud_km": 64.922306923614755 }, "geometry": { "type": "LineString", "coordinates": [ [ -4.41113391734694, 36.725038211913095 ], [ -4.46678164135157, 36.7232406937188 ], [ -4.55127564355167, 36.694181818914601 ], [ -4.59444134405711, 36.719515890112 ], [ -4.6414938481844, 36.714286426501303 ], [ -4.66484651339582, 36.731773973877701 ], [ -4.68663334679504, 36.786531852133699 ], [ -4.661616477061331, 36.853225864649502 ], [ -4.6702751772865, 36.889695706477902 ], [ -4.669215812038241, 36.944754866803706 ], [ -4.66127551341038, 36.962588140187897 ], [ -4.625182029947901, 36.999421923874898 ], [ -4.59844225258468, 37.065205300391099 ] ] } },
{ "type": "Feature", "properties": { "clase": "Via secundaria", "certeza": "Hipotética", "longitud_km": 150.37541682935688 }, "geometry": { "type": "LineString", "coordinates": [ [ -1.73548583292364, 38.957224776164203 ], [ -1.76888548444474, 38.997739565463398 ], [ -1.9589485609934, 39.143799732916207 ], [ -2.49653746095642, 39.506623687456297 ], [ -2.5328544928723, 39.545698285593303 ], [ -2.5432331964737, 39.572622146513403 ], [ -2.53578572708542, 39.689302832091698 ], [ -2.54328917229567, 39.739422589890999 ], [ -2.67757785429982, 39.896353450935202 ], [ -2.74274473521439, 39.996892194125209 ] ] } },
{ "type": "Feature", "properties": { "clase": "Via secundaria", "certeza": "Hipotética", "longitud_km": 48.124011144873329 }, "geometry": { "type": "LineString", "coordinates": [ [ -3.776282556669781, 38.804568581570102 ], [ -3.78110735416187, 38.667537358863598 ], [ -3.75976935231624, 38.589064362568301 ], [ -3.79795907785042, 38.4777764489234 ], [ -3.781569991024751, 38.380160301565205 ] ] } },
{ "type": "Feature", "properties": { "clase": "Via secundaria", "certeza": "Hipotética", "longitud_km": 38.079516708235829 }, "geometry": { "type": "LineString", "coordinates": [ [ -3.781569991024751, 38.380160301565205 ], [ -3.77468008976368, 38.341784047791592 ], [ -3.75258393856434, 38.306745568303207 ], [ -3.7461288003412, 38.247851323321299 ], [ -3.67999407094624, 38.173823573114298 ], [ -3.664108247292171, 38.0797998344513 ], [ -3.65251332720406, 38.063638888772203 ] ] } },
{ "type": "Feature", "properties": { "clase": "Via secundaria", "certeza": "Hipotética", "longitud_km": 71.708420590243605 }, "geometry": { "type": "LineString", "coordinates": [ [ -4.41009226867271, 38.661381926773501 ], [ -4.33027304441396, 38.645171735891701 ], [ -4.234000644822211, 38.652771290704898 ], [ -4.13406735352951, 38.630699583500601 ], [ -4.05068224968244, 38.574064215677801 ], [ -4.00377593738446, 38.519588848835497 ], [ -3.99727205298076, 38.500100423814899 ], [ -4.00858300482781, 38.450272260817989 ], [ -4.00059443792307, 38.432538489426008 ], [ -3.781569991024751, 38.380160301565205 ] ] } }
]
}
